{
  "type": "FeatureCollection",
  "generator": "overpass-ide",
  "copyright": "The data included in this document is from www.openstreetmap.org. The data is made available under ODbL.",
  "timestamp": "2022-09-18T03:44:39Z",
  "features": [
    {
      "type": "Feature",
      "properties": {
        "@id": "node/26151301",
        "addr:country": "BY",
        "addr:region": "Гомельская область",
        "alt_name:en": "Homyel",
        "alt_name:eo": "Gomel",
        "alt_name:lv": "Gomeļa",
        "capital": "4",
        "int_name": "Homieĺ",
        "name": "Гомель",
        "name:ar": "غوميل",
        "name:be": "Гомель",
        "name:be-tarask": "Гомель",
        "name:bg": "Гомел",
        "name:de": "Homel",
        "name:el": "Γόμελ",
        "name:en": "Homel",
        "name:eo": "Homel",
        "name:es": "Gómel",
        "name:et": "Gomel",
        "name:fa": "گومل",
        "name:fr": "Gomel",
        "name:he": "הומל",
        "name:hu": "Homel",
        "name:ja": "ホメリ",
        "name:ka": "გომელი",
        "name:ko": "호몔",
        "name:lt": "Gomelis",
        "name:lv": "Homjeļa",
        "name:mzn": "گومل",
        "name:nl": "Homel",
        "name:no": "Homjel",
        "name:pl": "Homel",
        "name:prefix": "город",
        "name:prefix:be": "горад",
        "name:prefix:ru": "город",
        "name:ru": "Гомель",
        "name:sah": "Гомель",
        "name:sg": "戈梅利",
        "name:sk": "Homeľ",
        "name:sr": "Гомељ",
        "name:sr-Latn": "Gomelj",
        "name:ta": "கோமெல்",
        "name:th": "กอเมล",
        "name:tr": "Gomel",
        "name:tw": "戈梅利",
        "name:uk": "Гомєль",
        "name:ur": "گومل",
        "name:vo": "Homyel",
        "name:war": "Homyel",
        "name:zh": "戈梅利",
        "name:zh-CN": "戈梅利",
        "name:zh-HK": "戈梅利",
        "name:zh-SG": "戈梅利",
        "name:zh-TW": "戈梅利",
        "old_name:uk": "Гомель",
        "place": "city",
        "population": "535693",
        "population:date": "2018-01-01",
        "source:population": "Белстат",
        "wikidata": "Q2678",
        "wikipedia": "be:Гомель",
        "wikipedia:ru": "Гомель"
      },
      "geometry": {
        "type": "Point",
        "coordinates": [
          31.0131698,
          52.4238936
        ]
      },
      "id": "node/26151301"
    },
    {
      "type": "Feature",
      "properties": {
        "@id": "node/26162465",
        "addr:country": "BY",
        "addr:postcode": "220000",
        "admin_level": "2",
        "alt_name:be": "Менск",
        "alt_name:gl": "Мінск",
        "alt_name:vi": "Minsk;Minxcơva",
        "capital": "yes",
        "capital_ISO3166-1": "yes",
        "ele": "280",
        "int_name": "Minsk",
        "is_in:continent": "Europe",
        "is_in:country": "Belarus",
        "is_in:country_code": "BY",
        "name": "Минск",
        "name:ar": "مينسك",
        "name:ast": "Minsk",
        "name:bat-smg": "Minsks",
        "name:be": "Мінск",
        "name:be-tarask": "Менск",
        "name:bg": "Минск",
        "name:bo": "མིན་སིཀ།",
        "name:ckb": "مینسک",
        "name:cs": "Minsk",
        "name:csb": "Mińsk",
        "name:cu": "Мѣньскъ",
        "name:cv": "Минск",
        "name:de": "Minsk",
        "name:el": "Μινσκ",
        "name:en": "Minsk",
        "name:eo": "Minsko",
        "name:es": "Minsk",
        "name:et": "Minsk",
        "name:fa": "مینسک",
        "name:fi": "Minsk",
        "name:fr": "Minsk",
        "name:ga": "Minsc",
        "name:gl": "Minsk",
        "name:he": "מינסק",
        "name:hi": "मिन्‍स्‍क",
        "name:hr": "Minsk",
        "name:hu": "Minszk",
        "name:hy": "Մինսկ",
        "name:ia": "Minsk",
        "name:io": "Minsk",
        "name:is": "Minsk",
        "name:it": "Minsk",
        "name:ja": "ミンスク",
        "name:jbo": "misk",
        "name:ka": "მინსკი",
        "name:kk": "Минск",
        "name:kn": "ಮಿನ್ಸ್ಕ್",
        "name:ko": "민스크",
        "name:ku": "Mînsk",
        "name:kv": "Минск",
        "name:ky": "Минск",
        "name:la": "Minscum",
        "name:lt": "Minskas",
        "name:lv": "Minska",
        "name:mhr": "Минск",
        "name:mk": "Минск",
        "name:ml": "മിൻസ്ക്",
        "name:mr": "मिन्‍स्‍क",
        "name:myv": "Минск ош",
        "name:nds": "Minsk",
        "name:nl": "Minsk",
        "name:no": "Minsk",
        "name:oc": "Minsk",
        "name:os": "Минск",
        "name:pl": "Mińsk",
        "name:pnb": "منسک",
        "name:prefix": "город",
        "name:prefix:be": "горад",
        "name:prefix:ru": "город",
        "name:pt": "Minsk",
        "name:ru": "Минск",
        "name:rue": "Мінск",
        "name:sah": "Минскай",
        "name:sk": "Minsk",
        "name:sl": "Minsk",
        "name:sr": "Минск",
        "name:sr-Latn": "Minsk",
        "name:sv": "Minsk",
        "name:szl": "Mińsk",
        "name:ta": "மின்ஸ்க்",
        "name:tg": "Минск",
        "name:th": "มินสก์",
        "name:tt": "Минск",
        "name:udm": "Минск",
        "name:ug": "مىنىسكى",
        "name:uk": "Мінськ",
        "name:ur": "منسک",
        "name:vi": "Minxcơ",
        "name:vo": "Minsk",
        "name:wuu": "明斯克",
        "name:yi": "מינסק",
        "name:zh": "明斯克",
        "nat_name": "Мінск",
        "old_name": "Менск",
        "old_name:be": "Менск",
        "place": "city",
        "population": "2020600",
        "population:date": "2020-01-01",
        "source:name:oc": "Lo Congrès",
        "source:population": "Белстат",
        "website": "https://minsk.gov.by/",
        "wikidata": "Q2280",
        "wikipedia": "ru:Минск",
        "wikipedia:be": "Мінск",
        "wikipedia:en": "Minsk",
        "wikipedia:pl": "Mińsk"
      },
      "geometry": {
        "type": "Point",
        "coordinates": [
          27.5618225,
          53.9024716
        ]
      },
      "id": "node/26162465"
    },
    {
      "type": "Feature",
      "properties": {
        "@id": "node/27171628",
        "addr:country": "BY",
        "addr:postcode": "224000",
        "addr:region": "Брестская область",
        "alt_name:be": "Берасце",
        "capital": "4",
        "int_name": "Brest",
        "is_in:continent": "Europe",
        "is_in:country": "Belarus",
        "is_in:country_code": "BY",
        "name": "Брест",
        "name:be": "Брэст",
        "name:be-tarask": "Берасьце",
        "name:de": "Brest",
        "name:en": "Brest",
        "name:es": "Brest",
        "name:et": "Brest",
        "name:fr": "Brest",
        "name:he": "ברסט ליטובסק",
        "name:hr": "Brest",
        "name:hu": "Breszt",
        "name:lt": "Brestas",
        "name:nl": "Brest",
        "name:pl": "Brześć",
        "name:prefix": "город",
        "name:prefix:be": "горад",
        "name:prefix:ru": "город",
        "name:ru": "Брест",
        "name:sk": "Brest",
        "name:uk": "Брест",
        "name:zh": "布列斯特",
        "old_name": "Брест-Литовск",
        "old_name:de": "Brest-Litowsk / Brest am Bug",
        "old_name:en": "Brest-Litovsk / Brest-on-the-Bug",
        "old_name:pl": "Brześć nad Bugiem",
        "place": "city",
        "population": "340521",
        "population:date": "2022-01-01",
        "source:population": "Белстат",
        "wikidata": "Q140147",
        "wikipedia": "ru:Брест",
        "wikipedia:be": "Брэст",
        "wikipedia:en": "Brest,_Belarus",
        "wikipedia:pl": "Brześć"
      },
      "geometry": {
        "type": "Point",
        "coordinates": [
          23.6851851,
          52.093751
        ]
      },
      "id": "node/27171628"
    },
    {
      "type": "Feature",
      "properties": {
        "@id": "node/27251066",
        "addr:country": "BY",
        "addr:district": "Любанский район",
        "addr:region": "Минская область",
        "alt_name:be": "Любонне;Любонь",
        "int_name": "Liubań",
        "name": "Любань",
        "name:be": "Любань",
        "name:be-tarask": "Любань",
        "name:de": "Ljuban",
        "name:en": "Lyuban",
        "name:fr": "Luban",
        "name:lt": "Liubanė",
        "name:pl": "Lubań",
        "name:prefix": "город",
        "name:prefix:be": "горад",
        "name:prefix:ru": "город",
        "name:ru": "Любань",
        "name:uk": "Любань",
        "place": "town",
        "population": "10917",
        "population:date": "2018-01-01",
        "source:population": "Белстат",
        "wikidata": "Q200991",
        "wikipedia": "ru:Любань (город, Минская область)",
        "wikipedia:be": "Любань",
        "wikipedia:de": "Ljuban",
        "wikipedia:en": "Lyuban",
        "wikipedia:fr": "Luban"
      },
      "geometry": {
        "type": "Point",
        "coordinates": [
          27.9981015,
          52.7959497
        ]
      },
      "id": "node/27251066"
    },
    {
      "type": "Feature",
      "properties": {
        "@id": "node/27253144",
        "addr:country": "BY",
        "addr:district": "Слуцкий район",
        "addr:region": "Минская область",
        "alt_name:be": "Слуцак",
        "alt_name:en": "Slutsk",
        "int_name": "Sluck",
        "is_in:continent": "Europe",
        "is_in:country": "Belarus",
        "is_in:country_code": "BY",
        "name": "Слуцк",
        "name:be": "Слуцк",
        "name:be-tarask": "Слуцак",
        "name:de": "Sluzk",
        "name:en": "Sluck",
        "name:eo": "Sluck",
        "name:es": "Slutsk",
        "name:fr": "Sloutsk",
        "name:hu": "Szluck",
        "name:lt": "Sluckas",
        "name:pl": "Słuck",
        "name:prefix": "город",
        "name:prefix:be": "горад",
        "name:prefix:ru": "город",
        "name:ru": "Слуцк",
        "name:uk": "Слуцьк",
        "old_name:be": "Случаск",
        "old_name:ru": "Случеск",
        "place": "town",
        "population": "61818",
        "population:date": "2018-01-01",
        "source:population": "Белстат",
        "wikidata": "Q201243",
        "wikipedia": "be:Слуцк"
      },
      "geometry": {
        "type": "Point",
        "coordinates": [
          27.5519747,
          53.0277354
        ]
      },
      "id": "node/27253144"
    },
    {
      "type": "Feature",
      "properties": {
        "@id": "node/119306277",
        "addr:country": "BY",
        "addr:district": "Верхнедвинский район",
        "addr:region": "Витебская область",
        "int_name": "Vierchniadzvinsk",
        "name": "Верхнедвинск",
        "name:be": "Верхнядзвінск",
        "name:be-tarask": "Дрыса",
        "name:de": "Werchnjadswinsk",
        "name:en": "Verkhnyadzvinsk",
        "name:eo": "Verĥnjadzvinsk",
        "name:fr": "Vierkhniadzvinsk",
        "name:lt": "Verchniadzvinskas",
        "name:pl": "Wierchniedźwińsk",
        "name:prefix": "город",
        "name:prefix:be": "горад",
        "name:prefix:ru": "город",
        "name:ru": "Верхнедвинск",
        "name:uk": "Вєрхнядзвінськ",
        "old_name:be": "Дрыса",
        "old_name:en": "Verkhnedvinsk",
        "old_name:ru": "Дрисса",
        "old_name:uk": "Верхньодвінськ;Дриса",
        "place": "town",
        "population": "7306",
        "population:date": "2018-01-01",
        "source:population": "Белстат",
        "wikidata": "Q954610",
        "wikipedia": "be:Верхнядзвінск"
      },
      "geometry": {
        "type": "Point",
        "coordinates": [
          27.934834,
          55.771
        ]
      },
      "id": "node/119306277"
    },
    {
      "type": "Feature",
      "properties": {
        "@id": "node/119306895",
        "addr:country": "BY",
        "addr:region": "Витебская область",
        "int_name": "Navapołack",
        "is_in:continent": "Europe",
        "is_in:country": "Belarus",
        "is_in:country_code": "BY",
        "name": "Новополоцк",
        "name:be": "Наваполацк",
        "name:be-tarask": "Наваполацак",
        "name:de": "Nawapolazk",
        "name:en": "Navapolatsk",
        "name:eo": "Navapolack",
        "name:es": "Navapolatsk",
        "name:et": "Navapolatsk",
        "name:fr": "Navapolatsk",
        "name:lt": "Navapolackas",
        "name:nl": "Navapolatsk",
        "name:pl": "Nowopołock",
        "name:prefix": "город",
        "name:prefix:be": "горад",
        "name:prefix:ru": "город",
        "name:ru": "Новополоцк",
        "name:sr": "Наваполацк",
        "name:sr-Latn": "Novopolock",
        "name:uk": "Наваполацьк",
        "old_name:uk": "Новополоцьк",
        "place": "town",
        "population": "98122",
        "population:date": "2021-01-01",
        "population:source": "http://www.belstat.gov.by/",
        "source:population": "Белстат",
        "website": "http://www.novopolotsk.by/",
        "wikidata": "Q750424",
        "wikipedia": "be:Горад Наваполацк",
        "wikipedia:pl": "Nowopołock",
        "wikipedia:ru": "Новополоцк"
      },
      "geometry": {
        "type": "Point",
        "coordinates": [
          28.64519,
          55.5348855
        ]
      },
      "id": "node/119306895"
    },
    {
      "type": "Feature",
      "properties": {
        "@id": "node/119310785",
        "addr:country": "BY",
        "addr:district": "Полоцкий район",
        "addr:region": "Витебская область",
        "alt_name:be": "Полацак",
        "alt_name:de": "Plotzkow",
        "contact:website": "http://polotsk.vitebsk-region.gov.by/index.php/ru/",
        "int_name": "Połack",
        "is_in:continent": "Europe",
        "is_in:country": "Belarus",
        "is_in:country_code": "BY",
        "name": "Полоцк",
        "name:be": "Полацк",
        "name:be-tarask": "Полацак",
        "name:de": "Polazk",
        "name:en": "Polatsk",
        "name:eo": "Polack",
        "name:es": "Polatsk",
        "name:fr": "Polotsk",
        "name:is": "Pallteskja",
        "name:la": "Polotia",
        "name:lt": "Polockas",
        "name:pl": "Połock",
        "name:prefix": "город",
        "name:prefix:be": "горад",
        "name:prefix:ru": "город",
        "name:ro": "Poloțk",
        "name:ru": "Полоцк",
        "name:sr": "Полоцк",
        "name:uk": "Полацьк",
        "old_name:uk": "Полоцьк",
        "place": "town",
        "population": "80795",
        "population:date": "2021-01-01",
        "source:name:uk": "Постановление за 2014",
        "source:population": "Белстат",
        "wikidata": "Q200797",
        "wikipedia": "ru:Полоцк"
      },
      "geometry": {
        "type": "Point",
        "coordinates": [
          28.7682339,
          55.4854656
        ]
      },
      "id": "node/119310785"
    },
    {
      "type": "Feature",
      "properties": {
        "@id": "node/119357582",
        "addr:country": "BY",
        "addr:district": "Браславский район",
        "addr:postcode": "211970",
        "addr:region": "Витебская область",
        "int_name": "Braslaŭ",
        "name": "Браслаў",
        "name:be": "Браслаў",
        "name:be-tarask": "Браслаў",
        "name:de": "Braslaw",
        "name:en": "Braslaw",
        "name:eo": "Braslaŭ",
        "name:fr": "Braslaw",
        "name:lt": "Breslauja",
        "name:lv": "Braslava",
        "name:pl": "Brasław",
        "name:prefix": "город",
        "name:prefix:be": "горад",
        "name:prefix:ru": "город",
        "name:ru": "Браслав",
        "name:uk": "Браслав",
        "place": "town",
        "population": "9829",
        "population:date": "2018-01-01",
        "source:population": "Белстат",
        "wikidata": "Q628623",
        "wikipedia": "be:Браслаў"
      },
      "geometry": {
        "type": "Point",
        "coordinates": [
          27.031643,
          55.639469
        ]
      },
      "id": "node/119357582"
    },
    {
      "type": "Feature",
      "properties": {
        "@id": "node/130200848",
        "addr:country": "BY",
        "addr:district": "Миорский район",
        "addr:region": "Витебская область",
        "alt_name:ru": "Мёры",
        "int_name": "Miory",
        "name": "Миоры",
        "name:be": "Мёры",
        "name:be-tarask": "Мёры",
        "name:de": "Mjory",
        "name:en": "Myory",
        "name:eo": "Mjori",
        "name:fr": "Miory",
        "name:lt": "Miorai",
        "name:pl": "Miory",
        "name:prefix": "город",
        "name:prefix:be": "горад",
        "name:prefix:ru": "город",
        "name:ru": "Миоры",
        "name:uk": "Мьори",
        "old_name:uk": "Міори",
        "place": "town",
        "population": "7935",
        "population:date": "2018-01-01",
        "source:population": "Белстат",
        "wikidata": "Q266841",
        "wikipedia": "be:Мёры"
      },
      "geometry": {
        "type": "Point",
        "coordinates": [
          27.615358,
          55.622227
        ]
      },
      "id": "node/130200848"
    },
    {
      "type": "Feature",
      "properties": {
        "@id": "node/130206091",
        "addr:country": "BY",
        "addr:district": "Миорский район",
        "addr:region": "Витебская область",
        "int_name": "Dzisna",
        "name": "Дисна",
        "name:be": "Дзісна",
        "name:de": "Dsisna",
        "name:en": "Dzisna",
        "name:eo": "Dzisna",
        "name:fr": "Dzisna",
        "name:lt": "Dysna",
        "name:pl": "Dzisna",
        "name:prefix": "город",
        "name:prefix:be": "горад",
        "name:prefix:ru": "город",
        "name:ru": "Дисна",
        "name:uk": "Дзісна",
        "old_name:uk": "Дісна",
        "place": "town",
        "population": "1462",
        "population:date": "2018-01-01",
        "source:population": "Белстат",
        "wikidata": "Q651555",
        "wikipedia": "ru:Дисна (город)"
      },
      "geometry": {
        "type": "Point",
        "coordinates": [
          28.2145727,
          55.5623067
        ]
      },
      "id": "node/130206091"
    },
    {
      "type": "Feature",
      "properties": {
        "@id": "node/193823659",
        "addr:country": "BY",
        "addr:postcode": "213800",
        "addr:region": "Могилёвская область",
        "int_name": "Babrujsk",
        "is_in:continent": "Europe",
        "is_in:country": "Belarus",
        "is_in:country_code": "BY",
        "name": "Бобруйск",
        "name:be": "Бабруйск",
        "name:be-tarask": "Бабруйск",
        "name:de": "Babrujsk",
        "name:en": "Babruysk",
        "name:eo": "Babrujsk",
        "name:es": "Babruisk",
        "name:et": "Babruisk",
        "name:fr": "Babrouïsk",
        "name:lt": "Babruiskas",
        "name:nl": "Babroejsk",
        "name:pl": "Bobrujsk",
        "name:prefix": "город",
        "name:prefix:be": "горад",
        "name:prefix:ru": "город",
        "name:ru": "Бобруйск",
        "name:sr": "Бабрујск",
        "name:sr-Latn": "Bobrujsk",
        "name:uk": "Бабруйськ",
        "name:zh": "博布鲁伊斯克",
        "old_name:uk": "Бобруйськ",
        "place": "city",
        "population": "217546",
        "population:date": "2018-01-01",
        "source:population": "Белстат",
        "wikidata": "Q207294",
        "wikipedia": "be:Горад Бабруйск"
      },
      "geometry": {
        "type": "Point",
        "coordinates": [
          29.2281209,
          53.1449683
        ]
      },
      "id": "node/193823659"
    },
    {
      "type": "Feature",
      "properties": {
        "@id": "node/193824312",
        "addr:country": "BY",
        "addr:district": "Жлобинский район",
        "addr:region": "Гомельская область",
        "int_name": "Žlobin",
        "is_in:continent": "Europe",
        "is_in:country": "Belarus",
        "is_in:country_code": "BY",
        "name": "Жлобин",
        "name:be": "Жлобін",
        "name:be-tarask": "Жлобін",
        "name:de": "Schlobin",
        "name:en": "Zhlobin",
        "name:eo": "Ĵlobin",
        "name:es": "Zhlobin",
        "name:fr": "Jlobine",
        "name:lt": "Žlobinas",
        "name:pl": "Żłobin",
        "name:prefix": "город",
        "name:prefix:be": "горад",
        "name:prefix:ru": "город",
        "name:ru": "Жлобин",
        "name:uk": "Жлобін",
        "name:zh": "日洛宾",
        "old_name:uk": "Жлобин",
        "place": "town",
        "population": "76220",
        "population:date": "2018-01-01",
        "source:population": "Белстат",
        "wikidata": "Q837765",
        "wikipedia": "ru:Жлобин",
        "wikipedia:be": "Жлобін",
        "wikipedia:de": "Schlobin",
        "wikipedia:en": "Zhlobin",
        "wikipedia:fr": "Jlobine",
        "wikipedia:ru": "Жлобин"
      },
      "geometry": {
        "type": "Point",
        "coordinates": [
          30.0368186,
          52.8909181
        ]
      },
      "id": "node/193824312"
    },
    {
      "type": "Feature",
      "properties": {
        "@id": "node/242978887",
        "addr:country": "BY",
        "capital": "4",
        "contact:website": "http://www.vitebsk.gov.by/ru/",
        "int_name": "Viciebsk",
        "is_in:continent": "Europe",
        "is_in:country": "Belarus",
        "is_in:country_code": "BY",
        "name": "Витебск",
        "name:be": "Віцебск",
        "name:be-tarask": "Віцебск",
        "name:ca": "Vítsiebsk",
        "name:de": "Wizebsk",
        "name:en": "Vitsebsk",
        "name:eo": "Vicebsko",
        "name:es": "Vítebsk",
        "name:et": "Vitsebsk",
        "name:fr": "Vitebsk",
        "name:lt": "Vitebskas",
        "name:nl": "Vitebsk",
        "name:pl": "Witebsk",
        "name:prefix": "город",
        "name:prefix:be": "горад",
        "name:prefix:ru": "город",
        "name:ru": "Витебск",
        "name:sk": "Vicebsk",
        "name:sr": "Витебск",
        "name:szl": "Witebsk",
        "name:uk": "Вітебськ",
        "place": "city",
        "population": "362949",
        "population:date": "2021-01-01",
        "population:source": "http://www.belstat.gov.by/",
        "source:population": "Белстат",
        "wikidata": "Q102217",
        "wikipedia": "ru:Витебск",
        "wikipedia:be": "Віцебск",
        "wikipedia:en": "Vitebsk",
        "wikipedia:pl": "Witebsk"
      },
      "geometry": {
        "type": "Point",
        "coordinates": [
          30.2070437,
          55.1930197
        ]
      },
      "id": "node/242978887"
    },
    {
      "type": "Feature",
      "properties": {
        "@id": "node/242978889",
        "addr:country": "BY",
        "addr:district": "Каменецкий район",
        "addr:region": "Брестская область",
        "alt_name:be": "Камянец",
        "alt_name:de": "Kamjanez",
        "int_name": "Kamieniec",
        "name": "Каменец",
        "name:be": "Каменец",
        "name:be-tarask": "Камянец",
        "name:de": "Kamenez",
        "name:en": "Kamyanyets",
        "name:es": "Kámieniets",
        "name:fa": "کامینیتس",
        "name:fr": "Kamianiets",
        "name:lt": "Kamianecas",
        "name:pl": "Kamieniec Litewski",
        "name:prefix": "город",
        "name:prefix:be": "горад",
        "name:prefix:ru": "город",
        "name:ru": "Каменец",
        "name:uk": "Кам’янець",
        "old_name:be": "Камянец-Літоўскі;Каменец-Літоўскі",
        "old_name:ru": "Каменец-Литовск",
        "place": "town",
        "population": "8339",
        "population:date": "2022-01-01",
        "source:population": "Белстат",
        "website": "https://kamenets.by",
        "wikidata": "Q956614",
        "wikipedia": "ru:Каменец"
      },
      "geometry": {
        "type": "Point",
        "coordinates": [
          23.8110309,
          52.4005918
        ]
      },
      "id": "node/242978889"
    },
    {
      "type": "Feature",
      "properties": {
        "@id": "node/242978890",
        "addr:country": "BY",
        "addr:district": "Жабинковский район",
        "addr:region": "Брестская область",
        "int_name": "Žabinka",
        "name": "Жабинка",
        "name:be": "Жабінка",
        "name:be-tarask": "Жабінка",
        "name:de": "Schabinka",
        "name:en": "Zhabinka",
        "name:fr": "Jabinka",
        "name:lt": "Žabinka",
        "name:pl": "Żabinka",
        "name:prefix": "город",
        "name:prefix:be": "горад",
        "name:prefix:ru": "город",
        "name:ru": "Жабинка",
        "name:uk": "Жабінка",
        "old_name:uk": "Жабинка",
        "place": "town",
        "population": "14 091",
        "population:date": "2022-01-01",
        "source:population": "Белстат",
        "wikidata": "Q520162",
        "wikipedia": "ru:Жабинка",
        "wikipedia:de": "Schabinka",
        "wikipedia:en": "Zhabinka",
        "wikipedia:fr": "Jabinka"
      },
      "geometry": {
        "type": "Point",
        "coordinates": [
          24.0199973,
          52.1941201
        ]
      },
      "id": "node/242978890"
    },
    {
      "type": "Feature",
      "properties": {
        "@id": "node/242978891",
        "addr:country": "BY",
        "addr:district": "Берестовицкий район",
        "addr:region": "Гродненская область",
        "alt_name:ru": "Великая Берестовица",
        "int_name": "Vialikaja Bierastavica",
        "name": "Большая Берестовица",
        "name:be": "Вялікая Бераставіца",
        "name:be-tarask": "Вялікая Бераставіца",
        "name:de": "Wjalikaja Berastawiza",
        "name:en": "Vyalikaya Byerastavitsa",
        "name:fr": "Vialikaïa Bierastavitsa",
        "name:pl": "Brzostowica Wielka",
        "name:prefix": "городской посёлок",
        "name:prefix:be": "гарадскі пасёлак",
        "name:prefix:ru": "городской посёлок",
        "name:ru": "Большая Берестовица",
        "name:uk": "Вялікая Бєраставіца",
        "old_name:uk": "Велика Берестовиця",
        "place": "town",
        "population": "5667",
        "population:date": "2018-01-01",
        "source:population": "Белстат",
        "wikidata": "Q1460634",
        "wikipedia": "ru:Большая Берестовица"
      },
      "geometry": {
        "type": "Point",
        "coordinates": [
          24.017197,
          53.1930575
        ]
      },
      "id": "node/242978891"
    },
    {
      "type": "Feature",
      "properties": {
        "@id": "node/242978892",
        "addr:country": "BY",
        "addr:district": "Малоритский район",
        "addr:region": "Брестская область",
        "int_name": "Malaryta",
        "name": "Малорита",
        "name:be": "Маларыта",
        "name:be-tarask": "Маларыта",
        "name:de": "Malaryta",
        "name:en": "Malaryta",
        "name:fr": "Malaryta",
        "name:lt": "Malaryta",
        "name:pl": "Małoryta",
        "name:prefix": "город",
        "name:prefix:be": "горад",
        "name:prefix:ru": "город",
        "name:ru": "Малорита",
        "name:uk": "Малорита",
        "place": "town",
        "population": "11914",
        "population:date": "2018-01-01",
        "source:population": "Белстат",
        "wikidata": "Q656579",
        "wikipedia": "ru:Малорита"
      },
      "geometry": {
        "type": "Point",
        "coordinates": [
          24.083765,
          51.791718
        ]
      },
      "id": "node/242978892"
    },
    {
      "type": "Feature",
      "properties": {
        "@id": "node/242978893",
        "addr:country": "BY",
        "addr:district": "Свислочский район",
        "addr:region": "Гродненская область",
        "int_name": "Svislač",
        "name": "Свислочь",
        "name:be": "Свіслач",
        "name:be-tarask": "Сьвіслач",
        "name:de": "Swislatsch",
        "name:en": "Svislach",
        "name:fr": "Svislatch",
        "name:lt": "Svisločius",
        "name:pl": "Świsłocz",
        "name:prefix": "город",
        "name:prefix:be": "горад",
        "name:prefix:ru": "город",
        "name:ru": "Свислочь",
        "place": "town",
        "population": "6426",
        "population:date": "2018-01-01",
        "source:population": "Белстат",
        "wikidata": "Q1076109",
        "wikipedia": "ru:Свислочь (город)"
      },
      "geometry": {
        "type": "Point",
        "coordinates": [
          24.094183,
          53.036549
        ]
      },
      "id": "node/242978893"
    },
    {
      "type": "Feature",
      "properties": {
        "@id": "node/242978894",
        "addr:country": "BY",
        "addr:district": "Кобринский район",
        "addr:region": "Брестская область",
        "alt_name:be": "Кобрань;Кобрынь",
        "contact:website": "http://kobrin.brest-region.gov.by/",
        "int_name": "Kobryn",
        "is_in:continent": "Europe",
        "is_in:country": "Belarus",
        "is_in:country_code": "BY",
        "name": "Кобрин",
        "name:be": "Кобрын",
        "name:be-tarask": "Кобрынь",
        "name:de": "Kobryn",
        "name:en": "Kobryn",
        "name:eo": "Kobryn",
        "name:es": "Kobriny",
        "name:fr": "Kobryn",
        "name:lt": "Kobrynas",
        "name:pl": "Kobryń",
        "name:prefix": "город",
        "name:prefix:be": "горад",
        "name:prefix:ru": "город",
        "name:ru": "Кобрин",
        "name:uk": "Кобринь",
        "old_name": "Кобринь",
        "old_name:ru": "Кобринь",
        "place": "town",
        "population": "52 699",
        "population:date": "2022-01-01",
        "source:population": "Белстат",
        "wikidata": "Q955992",
        "wikipedia": "ru:Кобрин",
        "wikipedia:be": "Кобрын",
        "wikipedia:de": "Kobryn",
        "wikipedia:en": "Kobrin",
        "wikipedia:fr": "Kobryn",
        "wikipedia:pl": "Kobryń"
      },
      "geometry": {
        "type": "Point",
        "coordinates": [
          24.3542923,
          52.2085858
        ]
      },
      "id": "node/242978894"
    },
    {
      "type": "Feature",
      "properties": {
        "@id": "node/242978895",
        "addr:country": "BY",
        "addr:district": "Пружанский район",
        "addr:region": "Брестская область",
        "alt_name:be": "Пружана",
        "int_name": "Pružany",
        "name": "Пружаны",
        "name:be": "Пружаны",
        "name:be-tarask": "Пружаны",
        "name:de": "Pruschany",
        "name:en": "Pruzhany",
        "name:fr": "Proujany",
        "name:lt": "Pružanai",
        "name:pl": "Prużana",
        "name:prefix": "город",
        "name:prefix:be": "горад",
        "name:prefix:ru": "город",
        "name:ru": "Пружаны",
        "name:uk": "Пружани",
        "place": "town",
        "population": "19 005",
        "population:date": "2022-01-01",
        "source:population": "Белстат",
        "wikidata": "Q956159",
        "wikipedia": "ru:Пружаны"
      },
      "geometry": {
        "type": "Point",
        "coordinates": [
          24.456711,
          52.5581924
        ]
      },
      "id": "node/242978895"
    },
    {
      "type": "Feature",
      "properties": {
        "@id": "node/242978897",
        "addr:country": "BY",
        "addr:district": "Мостовский район",
        "addr:region": "Гродненская область",
        "int_name": "Masty",
        "name": "Мосты",
        "name:be": "Масты",
        "name:be-tarask": "Масты",
        "name:de": "Masty",
        "name:en": "Masty",
        "name:fr": "Masty",
        "name:lt": "Mastai",
        "name:pl": "Mosty",
        "name:prefix": "город",
        "name:prefix:be": "горад",
        "name:prefix:ru": "город",
        "name:ru": "Мосты",
        "place": "town",
        "population": "15838",
        "population:date": "2018-01-01",
        "source:population": "Белстат",
        "wikidata": "Q958685",
        "wikipedia:be": "Масты",
        "wikipedia:de": "Masty",
        "wikipedia:en": "Masty",
        "wikipedia:fr": "Masty",
        "wikipedia:pl": "Mosty (miasto)",
        "wikipedia:ru": "Мосты_(город)"
      },
      "geometry": {
        "type": "Point",
        "coordinates": [
          24.5428406,
          53.4134113
        ]
      },
      "id": "node/242978897"
    },
    {
      "type": "Feature",
      "properties": {
        "@id": "node/242978899",
        "addr:country": "BY",
        "addr:district": "Щучинский район",
        "addr:region": "Гродненская область",
        "int_name": "Ščučyn",
        "name": "Щучин",
        "name:be": "Шчучын",
        "name:be-tarask": "Шчучын",
        "name:de": "Schtschutschyn",
        "name:en": "Shchuchyn",
        "name:fi": "Štšutšyn",
        "name:fr": "Chtchoutchyn",
        "name:lt": "Ščiutinas",
        "name:pl": "Szczuczyn",
        "name:prefix": "город",
        "name:prefix:be": "горад",
        "name:prefix:ru": "город",
        "name:ru": "Щучин",
        "place": "town",
        "population": "15475",
        "population:date": "2018-01-01",
        "source:population": "Белстат",
        "wikidata": "Q431779",
        "wikipedia:be": "Шчучын",
        "wikipedia:de": "Schtschutschyn",
        "wikipedia:en": "Shchuchyn",
        "wikipedia:fr": "Chtchoutchyn",
        "wikipedia:pl": "Szczuczyn (Białoruś)",
        "wikipedia:ru": "Щучин_(Гродненская_область)"
      },
      "geometry": {
        "type": "Point",
        "coordinates": [
          24.7420522,
          53.6045037
        ]
      },
      "id": "node/242978899"
    },
    {
      "type": "Feature",
      "properties": {
        "@id": "node/242978900",
        "addr:country": "BY",
        "addr:district": "Дрогичинский район",
        "addr:region": "Брестская область",
        "alt_name:pl": "Drohiczyn",
        "int_name": "Drahičyn",
        "name": "Дрогичин",
        "name:be": "Драгічын",
        "name:be-tarask": "Дарагі́чын",
        "name:de": "Drahitschyn",
        "name:en": "Drahichyn",
        "name:fr": "Drahitchyn",
        "name:lt": "Drohičinas",
        "name:pl": "Drohiczyn Poleski",
        "name:prefix": "город",
        "name:prefix:be": "горад",
        "name:prefix:ru": "город",
        "name:ru": "Дрогичин",
        "name:uk": "Дрогичин",
        "place": "town",
        "population": "14910",
        "population:date": "2018-01-01",
        "source:population": "Белстат",
        "wikidata": "Q956471",
        "wikipedia": "ru:Дрогичин"
      },
      "geometry": {
        "type": "Point",
        "coordinates": [
          25.1559039,
          52.1887638
        ]
      },
      "id": "node/242978900"
    },
    {
      "type": "Feature",
      "properties": {
        "@id": "node/242978901",
        "addr:country": "BY",
        "addr:district": "Берёзовский район",
        "addr:region": "Брестская область",
        "alt_name:be": "Бэрэза",
        "alt_name:pl": "Bereza Kartuska",
        "int_name": "Biaroza",
        "name": "Берёза",
        "name:be": "Бяроза",
        "name:be-tarask": "Бяроза",
        "name:de": "Bjarosa",
        "name:en": "Biaroza",
        "name:fr": "Biaroza",
        "name:lt": "Biaroza",
        "name:pl": "Bereza Kartuska",
        "name:prefix": "город",
        "name:prefix:be": "горад",
        "name:prefix:ru": "город",
        "name:ru": "Берёза",
        "name:uk": "Береза",
        "old_name:be": "Бяроза-Картуская",
        "old_name:ru": "Берёза-Картузская",
        "place": "town",
        "population": "28 537",
        "population:date": "2022-01-01",
        "source:population": "Белстат",
        "wikidata": "Q879406",
        "wikipedia": "ru:Берёза (город)",
        "wikipedia:de": "Bjarosa",
        "wikipedia:en": "Biaroza",
        "wikipedia:fr": "Biaroza",
        "wikipedia:pl": "Bereza (miasto)"
      },
      "geometry": {
        "type": "Point",
        "coordinates": [
          24.9844968,
          52.5345683
        ]
      },
      "id": "node/242978901"
    },
    {
      "type": "Feature",
      "properties": {
        "@id": "node/242978903",
        "int_name": "Lida",
        "is_in:continent": "Europe",
        "is_in:country": "Belarus",
        "is_in:country_code": "BY",
        "is_in:district": "Лидский район",
        "is_in:region": "Гродненская область",
        "name": "Лида",
        "name:be": "Ліда",
        "name:be-tarask": "Ліда",
        "name:de": "Lida",
        "name:en": "Lida",
        "name:eo": "Lida",
        "name:es": "Lida",
        "name:et": "Lida",
        "name:fr": "Lida",
        "name:lt": "Lyda",
        "name:nl": "Lida",
        "name:pl": "Lida",
        "name:prefix": "город",
        "name:prefix:be": "горад",
        "name:prefix:ru": "город",
        "name:ru": "Лида",
        "name:szl": "Lida",
        "name:uk": "Ліда",
        "place": "city",
        "population": "101616",
        "population:date": "2018-01-01",
        "population:source": "http://belstat.gov.by/",
        "source:population": "Белстат",
        "wikidata": "Q241475",
        "wikipedia": "be:Горад Ліда"
      },
      "geometry": {
        "type": "Point",
        "coordinates": [
          25.295719,
          53.8949515
        ]
      },
      "id": "node/242978903"
    },
    {
      "type": "Feature",
      "properties": {
        "@id": "node/242978904",
        "addr:country": "BY",
        "addr:district": "Слонимский район",
        "addr:region": "Гродненская область",
        "int_name": "Slonim",
        "name": "Слоним",
        "name:be": "Слонім",
        "name:be-tarask": "Слонім",
        "name:de": "Slonim",
        "name:en": "Slonim",
        "name:eo": "Slonim",
        "name:fr": "Slonim",
        "name:lt": "Slanimas",
        "name:pl": "Słonim",
        "name:prefix": "город",
        "name:prefix:be": "горад",
        "name:prefix:ru": "город",
        "name:ru": "Слоним",
        "name:uk": "Слонім",
        "place": "town",
        "population": "49441",
        "population:date": "2018-01-01",
        "source:population": "Белстат",
        "wikidata": "Q863576",
        "wikipedia:be": "Слонім",
        "wikipedia:de": "Slonim",
        "wikipedia:en": "Slonim",
        "wikipedia:fr": "Slonim",
        "wikipedia:pl": "Słonim",
        "wikipedia:ru": "Слоним"
      },
      "geometry": {
        "type": "Point",
        "coordinates": [
          25.3193209,
          53.0927071
        ]
      },
      "id": "node/242978904"
    },
    {
      "type": "Feature",
      "properties": {
        "@id": "node/242978905",
        "addr:country": "BY",
        "addr:district": "Ивацевичский район",
        "addr:region": "Брестская область",
        "int_name": "Ivacevičy",
        "name": "Ивацевичи",
        "name:be": "Івацэвічы",
        "name:be-tarask": "Івацэвічы",
        "name:de": "Iwazewitschy",
        "name:en": "Ivatsevichy",
        "name:fr": "Ivatsevitchy",
        "name:lt": "Ivacevičai",
        "name:pl": "Iwacewicze",
        "name:prefix": "город",
        "name:prefix:be": "горад",
        "name:prefix:ru": "город",
        "name:ru": "Ивацевичи",
        "name:uk": "Івацевичі",
        "place": "town",
        "population": "23458",
        "population:date": "2018-01-01",
        "source:population": "Белстат",
        "wikidata": "Q587173",
        "wikipedia": "ru:Ивацевичи"
      },
      "geometry": {
        "type": "Point",
        "coordinates": [
          25.3386297,
          52.7090639
        ]
      },
      "id": "node/242978905"
    },
    {
      "type": "Feature",
      "properties": {
        "@id": "node/242978906",
        "addr:country": "BY",
        "addr:district": "Ивановский район",
        "addr:region": "Брестская область",
        "alt_name:be": "Янаў;Янова",
        "int_name": "Ivanava",
        "name": "Иваново",
        "name:be": "Іванава",
        "name:be-tarask": "Янаў",
        "name:de": "Iwanawa",
        "name:en": "Ivanava",
        "name:fr": "Ivanava",
        "name:lt": "Ivanava",
        "name:pl": "Janów",
        "name:prefix": "город",
        "name:prefix:be": "горад",
        "name:prefix:ru": "город",
        "name:ru": "Иваново",
        "name:uk": "Іванава",
        "old_name:uk": "Іванове",
        "place": "town",
        "population": "16417",
        "population:date": "2018-01-01",
        "source:population": "Белстат",
        "wikidata": "Q956207",
        "wikipedia": "ru:Иваново (Брестская область)",
        "wikipedia:de": "Iwanawa",
        "wikipedia:en": "Ivanava",
        "wikipedia:fr": "Ivanava"
      },
      "geometry": {
        "type": "Point",
        "coordinates": [
          25.5326538,
          52.1459395
        ]
      },
      "id": "node/242978906"
    },
    {
      "type": "Feature",
      "properties": {
        "@id": "node/242978907",
        "addr:country": "BY",
        "addr:district": "Дятловский район",
        "addr:region": "Гродненская область",
        "alt_name:be": "Дзятлова",
        "alt_name:be-tarask": "Зьдзецел",
        "int_name": "Dziatlava",
        "name": "Дятлово",
        "name:be": "Дзятлава",
        "name:be-tarask": "Дзятлава",
        "name:de": "Dsjatlawa",
        "name:en": "Dziatlava",
        "name:fr": "Dziatlava",
        "name:lt": "Zietela",
        "name:pl": "Zdzięcioł",
        "name:prefix": "город",
        "name:prefix:be": "горад",
        "name:prefix:ru": "город",
        "name:ru": "Дятлово",
        "name:uk": "Дзятлава",
        "old_name:be": "Зьдзяцел;Зьдзецел",
        "old_name:ru": "Здзицел",
        "old_name:uk": "Дятлово",
        "place": "town",
        "population": "7624",
        "population:date": "2018-01-01",
        "source:population": "Белстат",
        "wikidata": "Q1025883",
        "wikipedia:be": "Дзятлава",
        "wikipedia:ru": "Дятлово_(Гродненская_область)"
      },
      "geometry": {
        "type": "Point",
        "coordinates": [
          25.4053485,
          53.4656997
        ]
      },
      "id": "node/242978907"
    },
    {
      "type": "Feature",
      "properties": {
        "@id": "node/242978908",
        "addr:country": "BY",
        "addr:district": "Ивьевский район",
        "addr:region": "Гродненская область",
        "int_name": "Iŭje",
        "name": "Ивье",
        "name:be": "Іўе",
        "name:be-tarask": "Іўе",
        "name:de": "Iuje",
        "name:en": "Iwye",
        "name:fr": "Iwie",
        "name:lt": "Vija",
        "name:pl": "Iwie",
        "name:prefix": "город",
        "name:prefix:be": "горад",
        "name:prefix:ru": "город",
        "name:ru": "Ивье",
        "place": "town",
        "population": "7702",
        "population:date": "2018-01-01",
        "source:population": "Белстат",
        "wikidata": "Q738777",
        "wikipedia": "pl:Iwie (miasto)"
      },
      "geometry": {
        "type": "Point",
        "coordinates": [
          25.778818,
          53.930511
        ]
      },
      "id": "node/242978908"
    },
    {
      "type": "Feature",
      "properties": {
        "@id": "node/242978909",
        "addr:country": "BY",
        "addr:district": "Новогрудский район",
        "addr:region": "Гродненская область",
        "alt_name:be": "Навагарадак;Наваградак",
        "contact:website": "http://novogrudok.grodno-region.by/",
        "int_name": "Navahrudak",
        "name": "Новогрудок",
        "name:be": "Навагрудак",
        "name:be-tarask": "Наваградак",
        "name:de": "Nawahrudak",
        "name:en": "Navahrudak",
        "name:eo": "Navahrudak",
        "name:fr": "Navahroudak",
        "name:lt": "Naugardukas",
        "name:pl": "Nowogródek",
        "name:prefix": "город",
        "name:prefix:be": "горад",
        "name:prefix:ru": "город",
        "name:ru": "Новогрудок",
        "name:uk": "Новогрудок",
        "place": "town",
        "population": "29424",
        "population:date": "2018-01-01",
        "source:population": "Белстат",
        "wikidata": "Q278743",
        "wikipedia:be": "Навагрудак",
        "wikipedia:ru": "Новогрудок"
      },
      "geometry": {
        "type": "Point",
        "coordinates": [
          25.8216337,
          53.5942493
        ]
      },
      "id": "node/242978909"
    },
    {
      "type": "Feature",
      "properties": {
        "@id": "node/242978910",
        "addr:country": "BY",
        "addr:district": "Ошмянский район",
        "addr:region": "Гродненская область",
        "alt_name:be": "Ашмяна",
        "int_name": "Ašmiany",
        "name": "Ошмяны",
        "name:be": "Ашмяны",
        "name:be-tarask": "Ашмяны",
        "name:de": "Aschmjany",
        "name:en": "Ashmyany",
        "name:fr": "Achmiany",
        "name:lt": "Ašmena",
        "name:pl": "Oszmiana",
        "name:prefix": "город",
        "name:prefix:be": "горад",
        "name:prefix:ru": "город",
        "name:ru": "Ошмяны",
        "old_name:de": "Oschmene",
        "place": "town",
        "population": "16835",
        "population:date": "2018-01-01",
        "source:population": "Белстат",
        "wikidata": "Q722836",
        "wikipedia": "be:Ашмяны"
      },
      "geometry": {
        "type": "Point",
        "coordinates": [
          25.9458953,
          54.4266578
        ]
      },
      "id": "node/242978910"
    },
    {
      "type": "Feature",
      "properties": {
        "@id": "node/242978911",
        "addr:country": "BY",
        "addr:region": "Брестская область",
        "contact:website": "http://baranovichy.by/",
        "int_name": "Baranavičy",
        "is_in:continent": "Europe",
        "is_in:country": "Belarus",
        "is_in:country_code": "BY",
        "name": "Барановичи",
        "name:be": "Баранавічы",
        "name:be-tarask": "Баранавічы",
        "name:de": "Baranawitschy",
        "name:en": "Baranavichy",
        "name:eo": "Baranaviĉi",
        "name:es": "Baránavichi",
        "name:et": "Baranavitšõ",
        "name:fr": "Baranavitchy",
        "name:lt": "Baranovičiai",
        "name:nl": "Baranovitsji",
        "name:pl": "Baranowicze",
        "name:prefix": "город",
        "name:prefix:be": "горад",
        "name:prefix:ru": "город",
        "name:ru": "Барановичи",
        "name:sr": "Баранавичи",
        "name:uk": "Баранавічи",
        "note:de": "name:de=deutscher Name und sonst nichts!",
        "old_name:uk": "Барановичі",
        "place": "city",
        "population": "179166",
        "population:date": "2018-01-01",
        "source:population": "Белстат",
        "wikidata": "Q237655",
        "wikipedia": "be:Горад Баранавічы"
      },
      "geometry": {
        "type": "Point",
        "coordinates": [
          26.0184156,
          53.1322925
        ]
      },
      "id": "node/242978911"
    },
    {
      "type": "Feature",
      "properties": {
        "@id": "node/242978912",
        "addr:country": "BY",
        "addr:region": "Брестская область",
        "capital": "6",
        "description": "город областного подчинения в Брестской области Республики Беларусь. Крупный культурный и промышленный центр Полесья",
        "ele": "141",
        "int_name": "Pinsk",
        "is_in:continent": "Europe",
        "is_in:country": "Belarus",
        "is_in:country_code": "BY",
        "name": "Пинск",
        "name:be": "Пінск",
        "name:be-tarask": "Пінск",
        "name:ckb": "پینسک",
        "name:de": "Pinsk",
        "name:en": "Pinsk",
        "name:eo": "Pinsk",
        "name:es": "Pinsk",
        "name:et": "Pinsk",
        "name:fr": "Pinsk",
        "name:hu": "Pinszk",
        "name:ku": "Pînsk",
        "name:la": "Pinscum",
        "name:lt": "Pinskas",
        "name:nl": "Pinsk",
        "name:pl": "Pińsk",
        "name:prefix": "город",
        "name:prefix:be": "горад",
        "name:prefix:ru": "город",
        "name:ru": "Пинск",
        "name:sr": "Пинск",
        "name:szl": "Pińsk",
        "name:uk": "Пінськ",
        "note": "Население Пинска :125 900 чел. (1 января 2021 г.)",
        "place": "city",
        "population": "125900",
        "population:date": "2018-01-01",
        "source:population": "Белстат",
        "start_date": "1097",
        "website": "https://pinsk.gov.by",
        "wikidata": "Q204150",
        "wikipedia": "be:Пінск",
        "wikipedia:pl": "Pińsk"
      },
      "geometry": {
        "type": "Point",
        "coordinates": [
          26.1025274,
          52.1113862
        ]
      },
      "id": "node/242978912"
    },
    {
      "type": "Feature",
      "properties": {
        "@id": "node/242978913",
        "addr:country": "BY",
        "addr:district": "Островецкий район",
        "addr:region": "Гродненская область",
        "int_name": "Astraviec",
        "name": "Островец",
        "name:be": "Астравец",
        "name:be-tarask": "Астравец",
        "name:de": "Astrawez",
        "name:en": "Astravyets",
        "name:fr": "Astraviets",
        "name:lt": "Astravas",
        "name:pl": "Ostrowiec",
        "name:prefix": "город",
        "name:prefix:be": "горад",
        "name:prefix:ru": "город",
        "name:ru": "Островец",
        "place": "town",
        "population": "10878",
        "population:date": "2018-01-01",
        "postal_code": "231201",
        "source:population": "Белстат",
        "wikidata": "Q261024",
        "wikipedia": "ru:Островец",
        "wikipedia:de": "Astrawez",
        "wikipedia:en": "Astravyets",
        "wikipedia:fr": "Astraviets",
        "wikipedia:pl": "Ostrowiec (obwód grodzieński)"
      },
      "geometry": {
        "type": "Point",
        "coordinates": [
          25.9565998,
          54.6149379
        ]
      },
      "id": "node/242978913"
    },
    {
      "type": "Feature",
      "properties": {
        "@id": "node/242978914",
        "addr:country": "BY",
        "addr:district": "Сморгонский район",
        "addr:region": "Гродненская область",
        "alt_name:be": "Смаргоні",
        "int_name": "Smarhon",
        "name": "Сморгонь",
        "name:be": "Смаргонь",
        "name:be-tarask": "Смаргонь",
        "name:de": "Smarhon",
        "name:en": "Smarhon",
        "name:eo": "Smarhon",
        "name:fr": "Smarhon",
        "name:lt": "Smurgainys",
        "name:pl": "Smorgonie",
        "name:prefix": "город",
        "name:prefix:be": "горад",
        "name:prefix:ru": "город",
        "name:ru": "Сморгонь",
        "name:uk": "Сморгонь",
        "place": "town",
        "population": "37527",
        "population:date": "2018-01-01",
        "population:source": "http://www.belstat.gov.by/",
        "source:population": "Белстат",
        "wikidata": "Q958617",
        "wikipedia": "lt:Smurgainys"
      },
      "geometry": {
        "type": "Point",
        "coordinates": [
          26.4012822,
          54.4817816
        ]
      },
      "id": "node/242978914"
    },
    {
      "type": "Feature",
      "properties": {
        "@id": "node/242978916",
        "addr:country": "BY",
        "addr:district": "Кореличский район",
        "addr:region": "Гродненская область",
        "int_name": "Kareličy",
        "name": "Кореличи",
        "name:be": "Карэлічы",
        "name:be-x-old": "Карэлічы",
        "name:en": "Karelichy",
        "name:lt": "Kareličai",
        "name:pl": "Korelicze",
        "name:prefix": "городской посёлок",
        "name:prefix:be": "гарадскі пасёлак",
        "name:prefix:ru": "городской посёлок",
        "name:ru": "Кореличи",
        "place": "town",
        "population": "6443",
        "population:date": "2018-01-01",
        "source:population": "Белстат",
        "start_date": "1395",
        "wikidata": "Q1025869",
        "wikipedia": "be:Гарадскі пасёлак Карэлічы"
      },
      "geometry": {
        "type": "Point",
        "coordinates": [
          26.138706,
          53.567295
        ]
      },
      "id": "node/242978916"
    },
    {
      "type": "Feature",
      "properties": {
        "@id": "node/242978917",
        "addr:country": "BY",
        "addr:district": "Ляховичский район",
        "addr:region": "Брестская область",
        "int_name": "Lachavičy",
        "name": "Ляховичи",
        "name:be": "Ляхавічы",
        "name:be-tarask": "Ляхавічы",
        "name:de": "Ljachawitschy",
        "name:en": "Lyakhavichy",
        "name:fr": "Liakhavitchy",
        "name:lt": "Liachavičai",
        "name:pl": "Lachowicze",
        "name:prefix": "город",
        "name:prefix:be": "горад",
        "name:prefix:ru": "город",
        "name:ru": "Ляховичи",
        "name:uk": "Ляховичі",
        "place": "town",
        "population": "10908",
        "population:date": "2018-01-01",
        "source:population": "Белстат",
        "wikidata": "Q956607",
        "wikipedia": "ru:Ляховичи"
      },
      "geometry": {
        "type": "Point",
        "coordinates": [
          26.265385,
          53.039761
        ]
      },
      "id": "node/242978917"
    },
    {
      "type": "Feature",
      "properties": {
        "@id": "node/242978918",
        "addr:country": "BY",
        "addr:district": "Несвижский район",
        "addr:region": "Минская область",
        "alt_name:be": "Несвіж",
        "int_name": "Niasviž",
        "name": "Несвиж",
        "name:be": "Нясвіж",
        "name:be-tarask": "Нясьвіж",
        "name:de": "Njaswisch",
        "name:en": "Nyasvizh",
        "name:fr": "Niasvij",
        "name:la": "Nesvisium",
        "name:lt": "Nesvyžius",
        "name:lv": "Ņasviža",
        "name:pl": "Nieśwież",
        "name:prefix": "город",
        "name:prefix:be": "горад",
        "name:prefix:ru": "город",
        "name:ru": "Несвиж",
        "name:uk": "Несвіж",
        "place": "town",
        "population": "15808",
        "population:date": "2018-01-01",
        "source:population": "Белстат",
        "wikidata": "Q201230",
        "wikipedia": "be:Нясвіж"
      },
      "geometry": {
        "type": "Point",
        "coordinates": [
          26.681732,
          53.218899
        ]
      },
      "id": "node/242978918"
    },
    {
      "type": "Feature",
      "properties": {
        "@id": "node/242978919",
        "addr:country": "BY",
        "addr:district": "Столбцовский район",
        "addr:region": "Минская область",
        "alt_name:be": "Стаўбцы;Стаўпцы;Стоўпцы",
        "int_name": "Stoŭbcy",
        "name": "Столбцы",
        "name:be": "Стоўбцы",
        "name:be-tarask": "Стоўпцы",
        "name:de": "Stoubzy",
        "name:en": "Stowbtsy",
        "name:fr": "Stowbtsy",
        "name:lt": "Stolpcai",
        "name:pl": "Stołpce",
        "name:prefix": "город",
        "name:prefix:be": "горад",
        "name:prefix:ru": "город",
        "name:ru": "Столбцы",
        "name:uk": "Стовбци",
        "old_name:uk": "Столбці",
        "place": "town",
        "population": "16946",
        "population:date": "2018-01-01",
        "source:population": "Белстат",
        "website": "https://stolbtsy.by/",
        "wikidata": "Q201421",
        "wikipedia": "ru:Столбцы",
        "wikipedia:be": "Стоўбцы"
      },
      "geometry": {
        "type": "Point",
        "coordinates": [
          26.7373366,
          53.4805863
        ]
      },
      "id": "node/242978919"
    },
    {
      "type": "Feature",
      "properties": {
        "@id": "node/242978920",
        "addr:country": "BY",
        "addr:district": "Воложинский район",
        "addr:region": "Минская область",
        "int_name": "Valožyn",
        "name": "Воложин",
        "name:be": "Валожын",
        "name:be-tarask": "Валожын",
        "name:de": "Waloschyn",
        "name:en": "Valozhyn",
        "name:fr": "Valojyn",
        "name:lt": "Valažinas",
        "name:pl": "Wołożyn",
        "name:prefix": "город",
        "name:prefix:be": "горад",
        "name:prefix:ru": "город",
        "name:ru": "Воложин",
        "name:uk": "Валожин",
        "old_name:uk": "Воложин",
        "place": "town",
        "population": "10308",
        "population:date": "2018-01-01",
        "source:population": "Белстат",
        "wikidata": "Q200876",
        "wikipedia": "ru:Воложин"
      },
      "geometry": {
        "type": "Point",
        "coordinates": [
          26.524609,
          54.084751
        ]
      },
      "id": "node/242978920"
    },
    {
      "type": "Feature",
      "properties": {
        "@id": "node/242978921",
        "addr:country": "BY",
        "addr:district": "Клецкий район",
        "addr:region": "Минская область",
        "alt_name:be": "Клецак",
        "int_name": "Klieck",
        "name": "Клецк",
        "name:be": "Клецк",
        "name:be-tarask": "Клецак",
        "name:de": "Klezk",
        "name:en": "Kletsk",
        "name:fr": "Klietsk",
        "name:lt": "Kleckas",
        "name:pl": "Kleck",
        "name:prefix": "город",
        "name:prefix:be": "горад",
        "name:prefix:ru": "город",
        "name:ru": "Клецк",
        "name:uk": "Клецьк",
        "place": "town",
        "population": "11483",
        "population:date": "2018-01-01",
        "source:population": "Белстат",
        "wikidata": "Q200937",
        "wikipedia": "ru:Клецк"
      },
      "geometry": {
        "type": "Point",
        "coordinates": [
          26.632966,
          53.0661204
        ]
      },
      "id": "node/242978921"
    },
    {
      "type": "Feature",
      "properties": {
        "@id": "node/242978923",
        "addr:country": "BY",
        "addr:district": "Вилейский район",
        "addr:region": "Минская область",
        "int_name": "Viliejka",
        "name": "Вилейка",
        "name:be": "Вілейка",
        "name:be-tarask": "Вялейка",
        "name:de": "Wilejka",
        "name:en": "Vileyka",
        "name:eo": "Vilejka",
        "name:fr": "Vileïka",
        "name:lt": "Vileika",
        "name:pl": "Wilejka",
        "name:prefix": "город",
        "name:prefix:be": "горад",
        "name:prefix:ru": "город",
        "name:ru": "Вилейка",
        "name:uk": "Вілєйка",
        "old_name:uk": "Вілейка",
        "place": "town",
        "population": "26760",
        "population:date": "2018-01-01",
        "source:population": "Белстат",
        "wikidata": "Q181632",
        "wikipedia": "ru:Вилейка"
      },
      "geometry": {
        "type": "Point",
        "coordinates": [
          26.9171729,
          54.4986462
        ]
      },
      "id": "node/242978923"
    },
    {
      "type": "Feature",
      "properties": {
        "@id": "node/242978924",
        "addr:country": "BY",
        "addr:district": "Столинский район",
        "addr:region": "Брестская область",
        "int_name": "Stolin",
        "name": "Столин",
        "name:be": "Столін",
        "name:be-tarask": "Столін",
        "name:de": "Stolin",
        "name:en": "Stolin",
        "name:fr": "Stoline",
        "name:lt": "Stolinas",
        "name:pl": "Stolin",
        "name:prefix": "город",
        "name:prefix:be": "горад",
        "name:prefix:ru": "город",
        "name:ru": "Столин",
        "name:uk": "Столін",
        "place": "town",
        "population": "13460",
        "population:date": "2018-01-01",
        "source:population": "Белстат",
        "wikidata": "Q956565",
        "wikipedia": "ru:Столин",
        "wikipedia:be": "Столін"
      },
      "geometry": {
        "type": "Point",
        "coordinates": [
          26.849598,
          51.889572
        ]
      },
      "id": "node/242978924"
    },
    {
      "type": "Feature",
      "properties": {
        "@id": "node/242978925",
        "addr:country": "BY",
        "addr:district": "Лунинецкий район",
        "addr:region": "Брестская область",
        "alt_name:de": "Luninitz",
        "int_name": "Luniniec",
        "name": "Лунинец",
        "name:be": "Лунінец",
        "name:be-tarask": "Лунінец",
        "name:de": "Luninez",
        "name:en": "Luniniec",
        "name:fr": "Louniniets",
        "name:lt": "Luninecas",
        "name:pl": "Łuniniec",
        "name:prefix": "город",
        "name:prefix:be": "горад",
        "name:prefix:ru": "город",
        "name:ru": "Лунинец",
        "name:uk": "Лунинець",
        "place": "town",
        "population": "24816",
        "population:date": "2018-01-01",
        "source:population": "Белстат",
        "wikidata": "Q956132",
        "wikipedia": "ru:Лунинец"
      },
      "geometry": {
        "type": "Point",
        "coordinates": [
          26.797758,
          52.245228
        ]
      },
      "id": "node/242978925"
    },
    {
      "type": "Feature",
      "properties": {
        "@id": "node/242978926",
        "addr:country": "BY",
        "addr:district": "Копыльский район",
        "addr:region": "Минская область",
        "alt_name:be": "Копыль",
        "int_name": "Kapyl",
        "name": "Копыль",
        "name:be": "Капыль",
        "name:be-tarask": "Капыль",
        "name:de": "Kapyl",
        "name:en": "Kapyĺ",
        "name:fr": "Kapyl",
        "name:lt": "Kapylius",
        "name:pl": "Kopyl",
        "name:prefix": "город",
        "name:prefix:be": "горад",
        "name:prefix:ru": "город",
        "name:ru": "Копыль",
        "name:uk": "Копиль",
        "place": "town",
        "population": "9489",
        "population:date": "2018-01-01",
        "source:population": "Белстат",
        "wikidata": "Q200950",
        "wikipedia": "be:Капыль"
      },
      "geometry": {
        "type": "Point",
        "coordinates": [
          27.0906929,
          53.1514024
        ]
      },
      "id": "node/242978926"
    },
    {
      "type": "Feature",
      "properties": {
        "@id": "node/242978928",
        "addr:country": "BY",
        "addr:district": "Мядельский район",
        "addr:region": "Минская область",
        "alt_name:be": "Мядзела;Мядзель;Мядзіла;Мядзіль",
        "alt_name:ru": "Мядел",
        "int_name": "Miadziel",
        "name": "Мядель",
        "name:be": "Мядзел",
        "name:be-tarask": "Мядзел",
        "name:de": "Mjadsel",
        "name:en": "Myadzyel",
        "name:eo": "Mjadzel",
        "name:fr": "Miadziel",
        "name:lt": "Medilas",
        "name:pl": "Miadzioł",
        "name:prefix": "город",
        "name:prefix:be": "горад",
        "name:prefix:ru": "город",
        "name:ru": "Мядель",
        "name:uk": "Мядель",
        "place": "town",
        "population": "6911",
        "population:date": "2018-01-01",
        "source:population": "Белстат",
        "wikidata": "Q201218",
        "wikipedia": "lt:Medilas"
      },
      "geometry": {
        "type": "Point",
        "coordinates": [
          26.9342927,
          54.8779665
        ]
      },
      "id": "node/242978928"
    },
    {
      "type": "Feature",
      "properties": {
        "@id": "node/242978929",
        "addr:country": "BY",
        "addr:district": "Поставский район",
        "addr:region": "Витебская область",
        "int_name": "Pastavy",
        "name": "Поставы",
        "name:be": "Паставы",
        "name:be-tarask": "Паставы",
        "name:de": "Pastawy",
        "name:en": "Pastavy",
        "name:eo": "Pastavi",
        "name:fr": "Pastavy",
        "name:lt": "Pastovys",
        "name:pl": "Postawy",
        "name:prefix": "город",
        "name:prefix:be": "горад",
        "name:prefix:ru": "город",
        "name:ru": "Поставы",
        "name:uk": "Постави",
        "place": "town",
        "population": "19881",
        "population:date": "2018-01-01",
        "source:population": "Белстат",
        "wikidata": "Q539012",
        "wikipedia": "ru:Поставы",
        "wikipedia:de": "Pastawy",
        "wikipedia:en": "Pastavy",
        "wikipedia:fr": "Pastavy",
        "wikipedia:pl": "Postawy"
      },
      "geometry": {
        "type": "Point",
        "coordinates": [
          26.83992,
          55.1129217
        ]
      },
      "id": "node/242978929"
    },
    {
      "type": "Feature",
      "properties": {
        "@id": "node/242978930",
        "addr:country": "BY",
        "addr:district": "Солигорский район",
        "addr:region": "Минская область",
        "int_name": "Salihorsk",
        "is_in:continent": "Europe",
        "is_in:country": "Belarus",
        "is_in:country_code": "BY",
        "name": "Солигорск",
        "name:be": "Салігорск",
        "name:be-tarask": "Салігорск",
        "name:de": "Soligorsk",
        "name:en": "Salihorsk",
        "name:eo": "Salihorsk",
        "name:es": "Saligorsk",
        "name:et": "Saligorsk",
        "name:fr": "Salihorsk",
        "name:hu": "Szalihorszk",
        "name:lt": "Salihorskas",
        "name:nl": "Salihorsk",
        "name:pl": "Soligorsk",
        "name:prefix": "город",
        "name:prefix:be": "горад",
        "name:prefix:ru": "город",
        "name:ru": "Солигорск",
        "name:sr": "Салигорск",
        "name:uk": "Салігорськ",
        "old_name:uk": "Солігорськ",
        "place": "city",
        "population": "106627",
        "population:date": "2018-01-01",
        "source:population": "Белстат",
        "wikidata": "Q201393",
        "wikipedia": "be:Горад Салігорск",
        "wikipedia:ru": "Солигорск"
      },
      "geometry": {
        "type": "Point",
        "coordinates": [
          27.5318168,
          52.7893039
        ]
      },
      "id": "node/242978930"
    },
    {
      "type": "Feature",
      "properties": {
        "@id": "node/242978931",
        "addr:country": "BY",
        "addr:district": "Шарковщинский район",
        "addr:region": "Витебская область",
        "int_name": "Šarkaŭščyna",
        "name": "Шарковщина",
        "name:be": "Шаркаўшчына",
        "name:be-tarask": "Шаркоўшчына",
        "name:de": "Scharkauschtschyna",
        "name:en": "Sharkaushchyna",
        "name:eo": "Ŝarkaŭŝĉina",
        "name:fr": "Charkawchtchyna",
        "name:pl": "Szarkowszczyzna",
        "name:prefix": "городской посёлок",
        "name:prefix:be": "гарадскі пасёлак",
        "name:prefix:ru": "городской посёлок",
        "name:ru": "Шарковщина",
        "place": "town",
        "population": "6248",
        "population:date": "2018-01-01",
        "source:population": "Белстат",
        "wikidata": "Q2659505",
        "wikipedia": "ru:Шарковщина",
        "wikipedia:de": "Scharkauschtschyna",
        "wikipedia:en": "Sharkaushchyna",
        "wikipedia:fr": "Charkawchtchyna",
        "wikipedia:pl": "Szarkowszczyzna"
      },
      "geometry": {
        "type": "Point",
        "coordinates": [
          27.470825,
          55.367016
        ]
      },
      "id": "node/242978931"
    },
    {
      "type": "Feature",
      "properties": {
        "@id": "node/242978932",
        "addr:country": "BY",
        "addr:district": "Дзержинский район",
        "addr:region": "Минская область",
        "int_name": "Dziaržynsk",
        "name": "Дзержинск",
        "name:be": "Дзяржынск",
        "name:be-tarask": "Койданаў",
        "name:de": "Dsjarschynsk",
        "name:en": "Dzyarzhynsk",
        "name:fr": "Dziarjynsk",
        "name:lt": "Dzeržinskas",
        "name:pl": "Dzierżyńsk",
        "name:prefix": "город",
        "name:prefix:be": "горад",
        "name:prefix:ru": "город",
        "name:ru": "Дзержинск",
        "name:uk": "Дзяржинськ",
        "old_name:be": "Койданаў;Койданава",
        "old_name:ru": "Койданов;Койданово",
        "old_name:uk": "Дзержинськ",
        "place": "town",
        "population": "27839",
        "population:date": "2018-01-01",
        "source:population": "Белстат",
        "wikidata": "Q200891",
        "wikipedia:be": "Дзяржынск",
        "wikipedia:ru": "Дзержинск_(Минская_область)"
      },
      "geometry": {
        "type": "Point",
        "coordinates": [
          27.1314539,
          53.6852149
        ]
      },
      "id": "node/242978932"
    },
    {
      "type": "Feature",
      "properties": {
        "@id": "node/242978934",
        "addr:country": "BY",
        "addr:district": "Глубокский район",
        "addr:region": "Витебская область",
        "int_name": "Hlybokaje",
        "name": "Глубокое",
        "name:be": "Глыбокае",
        "name:be-tarask": "Глыбокае",
        "name:de": "Hlybokaje",
        "name:en": "Hlybokaye",
        "name:eo": "Hlibokaje",
        "name:fr": "Hlybokaïe",
        "name:lt": "Glubokas",
        "name:pl": "Głębokie",
        "name:prefix": "город",
        "name:prefix:be": "горад",
        "name:prefix:ru": "город",
        "name:ru": "Глубокое",
        "name:uk": "Глибокає",
        "old_name:uk": "Глибоке",
        "place": "town",
        "population": "19084",
        "population:date": "2018-01-01",
        "source:population": "Белстат",
        "wikidata": "Q954114",
        "wikipedia": "ru:Глубокое (город)"
      },
      "geometry": {
        "type": "Point",
        "coordinates": [
          27.6845787,
          55.139235
        ]
      },
      "id": "node/242978934"
    },
    {
      "type": "Feature",
      "properties": {
        "@id": "node/242978935",
        "addr:country": "BY",
        "addr:district": "Докшицкий район",
        "addr:region": "Витебская область",
        "int_name": "Dokšycy",
        "name": "Докшицы",
        "name:be": "Докшыцы",
        "name:be-tarask": "Докшыцы",
        "name:de": "Dokschyzy",
        "name:en": "Dokshytsy",
        "name:eo": "Dokŝici",
        "name:fr": "Dokchytsy",
        "name:lt": "Dokšica",
        "name:pl": "Dokszyce",
        "name:prefix": "город",
        "name:prefix:be": "горад",
        "name:prefix:ru": "город",
        "name:ru": "Докшицы",
        "name:uk": "Докшици",
        "old_name:uk": "Докшиці",
        "place": "town",
        "population": "6954",
        "population:date": "2018-01-01",
        "population:source": "http://www.belstat.gov.by/",
        "source:population": "Белстат",
        "wikidata": "Q954618",
        "wikipedia": "lt:Dokšica",
        "wikipedia:be": "Докшыцы",
        "wikipedia:ru": "Докшицы"
      },
      "geometry": {
        "type": "Point",
        "coordinates": [
          27.7603777,
          54.8945582
        ]
      },
      "id": "node/242978935"
    },
    {
      "type": "Feature",
      "properties": {
        "@id": "node/242978939",
        "addr:country": "BY",
        "addr:district": "Логойский район",
        "addr:region": "Минская область",
        "alt_name:be": "Лагойска",
        "int_name": "Lahojsk",
        "name": "Логойск",
        "name:be": "Лагойск",
        "name:be-tarask": "Лагойск",
        "name:de": "Lahojsk",
        "name:en": "Lahojsk",
        "name:eo": "Lahojsk",
        "name:fr": "Lahoïsk",
        "name:lt": "Lahoiskas",
        "name:pl": "Łohojsk",
        "name:prefix": "город",
        "name:prefix:be": "горад",
        "name:prefix:ru": "город",
        "name:ru": "Логойск",
        "name:uk": "Лагойськ",
        "old_name:uk": "Логойськ",
        "place": "town",
        "population": "13099",
        "population:date": "2018-01-01",
        "source:name:uk": "Постановление за 2014",
        "source:population": "Белстат",
        "wikidata": "Q200968",
        "wikipedia": "en:Lahoysk",
        "wikipedia:ru": "Логойск"
      },
      "geometry": {
        "type": "Point",
        "coordinates": [
          27.8475204,
          54.2005054
        ]
      },
      "id": "node/242978939"
    },
    {
      "type": "Feature",
      "properties": {
        "@id": "node/242978941",
        "addr:country": "BY",
        "addr:district": "Житковичский район",
        "addr:region": "Гомельская область",
        "alt_name:pl": "Żydkowicze",
        "int_name": "Žytkavičy",
        "name": "Житковичи",
        "name:be": "Жыткавічы",
        "name:be-tarask": "Жыткавічы",
        "name:de": "Schytkawitschy",
        "name:en": "Zhytkavichy",
        "name:fr": "Jytkavitchy",
        "name:lt": "Žytkavičai",
        "name:pl": "Żytkowicze",
        "name:prefix": "город",
        "name:prefix:be": "горад",
        "name:prefix:ru": "город",
        "name:ru": "Житковичи",
        "name:uk": "Житковичі",
        "place": "town",
        "population": "16002",
        "population:date": "2018-01-01",
        "source:population": "Белстат",
        "wikidata": "Q955564",
        "wikipedia": "ru:Житковичи",
        "wikipedia:de": "Schytkawitschy",
        "wikipedia:en": "Zhytkavichy",
        "wikipedia:fr": "Jytkavitchy",
        "wikipedia:pl": "Żytkowicze"
      },
      "geometry": {
        "type": "Point",
        "coordinates": [
          27.8571199,
          52.21905
        ]
      },
      "id": "node/242978941"
    },
    {
      "type": "Feature",
      "properties": {
        "@id": "node/242978943",
        "addr:country": "BY",
        "addr:district": "Стародорожский район",
        "addr:region": "Минская область",
        "alt_name:be": "Дарогі",
        "int_name": "Staryja Darohi",
        "name": "Старые Дороги",
        "name:be": "Старыя Дарогі",
        "name:de": "Staryja Darohi",
        "name:en": "Staryya Darohi",
        "name:fr": "Staryïa Darohi",
        "name:lt": "Staryja Darohos",
        "name:pl": "Stare Dorohi",
        "name:prefix": "город",
        "name:prefix:be": "горад",
        "name:prefix:ru": "город",
        "name:ru": "Старые Дороги",
        "name:uk": "Стария Дарогі",
        "old_name:uk": "Старі Дороги",
        "place": "town",
        "population": "10406",
        "population:date": "2018-01-01",
        "source:population": "Белстат",
        "wikidata": "Q201403",
        "wikipedia": "be:Старыя Дарогі"
      },
      "geometry": {
        "type": "Point",
        "coordinates": [
          28.261724,
          53.039768
        ]
      },
      "id": "node/242978943"
    },
    {
      "type": "Feature",
      "properties": {
        "@id": "node/242978944",
        "addr:country": "BY",
        "addr:district": "Лельчицкий район",
        "addr:region": "Гомельская область",
        "alt_name:be": "Ленчыцы",
        "int_name": "Lieĺčycy",
        "name": "Лельчицы",
        "name:be": "Лельчыцы",
        "name:be-tarask": "Лельчыцы",
        "name:de": "Leltschyzy",
        "name:en": "Lelchytsy",
        "name:fr": "Lieltchytsy",
        "name:lt": "Lelčycai",
        "name:pl": "Lelczyce",
        "name:prefix": "городской посёлок",
        "name:prefix:be": "гарадскі пасёлак",
        "name:prefix:ru": "городской посёлок",
        "name:ru": "Лельчицы",
        "name:uk": "Лєльчици",
        "place": "town",
        "population": "11498",
        "population:date": "2018-01-01",
        "source:population": "Белстат",
        "wikidata": "Q2607484",
        "wikipedia": "ru:Лельчицы",
        "wikipedia:de": "Leltschyzy",
        "wikipedia:en": "Lelchytsy",
        "wikipedia:fr": "Lieltchytsy"
      },
      "geometry": {
        "type": "Point",
        "coordinates": [
          28.3289657,
          51.7861783
        ]
      },
      "id": "node/242978944"
    },
    {
      "type": "Feature",
      "properties": {
        "@id": "node/242978945",
        "addr:country": "BY",
        "addr:district": "Смолевичский район",
        "addr:region": "Минская область",
        "int_name": "Smaliavičy",
        "name": "Смолевичи",
        "name:be": "Смалявічы",
        "name:be-tarask": "Смалявічы",
        "name:de": "Smaljawitschy",
        "name:en": "Smalyavichy",
        "name:eo": "Smalaviĉi",
        "name:fr": "Smaliavitchy",
        "name:lt": "Smaliavičai",
        "name:pl": "Smolewicze",
        "name:prefix": "город",
        "name:prefix:be": "горад",
        "name:prefix:ru": "город",
        "name:ru": "Смолевичи",
        "name:uk": "Смолевичі",
        "place": "town",
        "population": "16784",
        "population:date": "2018-01-01",
        "source:population": "Белстат",
        "wikidata": "Q201265",
        "wikipedia": "be:Смалявічы"
      },
      "geometry": {
        "type": "Point",
        "coordinates": [
          28.089752,
          54.0299337
        ]
      },
      "id": "node/242978945"
    },
    {
      "type": "Feature",
      "properties": {
        "@id": "node/242978947",
        "addr:country": "BY",
        "addr:district": "Лепельский район",
        "addr:region": "Витебская область",
        "alt_name:be": "Лепля",
        "int_name": "Liepieĺ",
        "name": "Лепель",
        "name:be": "Лепель",
        "name:be-tarask": "Ле́пель",
        "name:de": "Lepel",
        "name:en": "Lyepyel",
        "name:eo": "Lepel",
        "name:fr": "Liepiel",
        "name:lt": "Lepelis",
        "name:pl": "Lepel",
        "name:prefix": "город",
        "name:prefix:be": "горад",
        "name:prefix:ru": "город",
        "name:ru": "Лепель",
        "name:uk": "Лепель",
        "name:zh": "列佩利",
        "place": "town",
        "population": "17828",
        "population:date": "2018-01-01",
        "source:population": "Белстат",
        "wikidata": "Q954132",
        "wikipedia": "ru:Лепель"
      },
      "geometry": {
        "type": "Point",
        "coordinates": [
          28.687524,
          54.8863351
        ]
      },
      "id": "node/242978947"
    },
    {
      "type": "Feature",
      "properties": {
        "@id": "node/242978948",
        "addr:country": "BY",
        "addr:district": "Ушачский район",
        "addr:region": "Витебская область",
        "alt_name:pl": "Uszacze",
        "int_name": "Ušačy",
        "name": "Ушачи",
        "name:be": "Ушачы",
        "name:be-tarask": "Ушачы",
        "name:de": "Uschatschy",
        "name:en": "Ushachy",
        "name:eo": "Ŭŝaĉi",
        "name:pl": "Uszacz",
        "name:prefix": "городской посёлок",
        "name:prefix:be": "гарадскі пасёлак",
        "name:prefix:ru": "городской посёлок",
        "name:ru": "Ушачи",
        "place": "town",
        "population": "5974",
        "population:date": "2018-01-01",
        "source:population": "Белстат",
        "wikidata": "Q2987234",
        "wikipedia": "ru:Ушачи",
        "wikipedia:de": "Uschatschy",
        "wikipedia:en": "Ushachy",
        "wikipedia:pl": "Uszacz (obwód witebski)"
      },
      "geometry": {
        "type": "Point",
        "coordinates": [
          28.617221,
          55.1790267
        ]
      },
      "id": "node/242978948"
    },
    {
      "type": "Feature",
      "properties": {
        "@id": "node/242978949",
        "addr:country": "BY",
        "addr:district": "Октябрьский район",
        "addr:region": "Гомельская область",
        "int_name": "Akciabrski",
        "name": "Октябрьский",
        "name:be": "Акцябрскі",
        "name:be-tarask": "Рудабе́лка",
        "name:de": "Akzjabrski",
        "name:en": "Aktsyabarski",
        "name:fr": "Aktsiabrski",
        "name:pl": "Oktiabrski",
        "name:prefix": "городской посёлок",
        "name:prefix:be": "гарадскі пасёлак",
        "name:prefix:ru": "городской посёлок",
        "name:ru": "Октябрьский",
        "place": "town",
        "population": "6594",
        "population:date": "2018-01-01",
        "source:population": "Белстат",
        "wikidata": "Q2494383",
        "wikipedia": "ru:Октябрьский (Гомельская область)",
        "wikipedia:de": "Akzjabrski",
        "wikipedia:en": "Aktsyabarski",
        "wikipedia:fr": "Aktsiabrski",
        "wikipedia:pl": "Oktiabrski"
      },
      "geometry": {
        "type": "Point",
        "coordinates": [
          28.8798261,
          52.6428806
        ]
      },
      "id": "node/242978949"
    },
    {
      "type": "Feature",
      "properties": {
        "@id": "node/242978951",
        "addr:country": "BY",
        "addr:district": "Червенский район",
        "addr:region": "Минская область",
        "alt_name:de": "Tscherwien",
        "int_name": "Červień",
        "name": "Червень",
        "name:be": "Чэрвень",
        "name:be-tarask": "Ігумен",
        "name:de": "Tscherwen",
        "name:en": "Chervyen",
        "name:eo": "Ĉervenj",
        "name:fr": "Tchervien",
        "name:lt": "Červenė",
        "name:pl": "Czerwień",
        "name:prefix": "город",
        "name:prefix:be": "горад",
        "name:prefix:ru": "город",
        "name:ru": "Червень",
        "name:uk": "Червєнь",
        "old_name": "Iгумен",
        "old_name:be": "Ігумен",
        "old_name:ru": "Игумен",
        "old_name:uk": "Червень",
        "place": "town",
        "population": "9619",
        "population:date": "2018-01-01",
        "source:population": "Белстат",
        "wikidata": "Q201458",
        "wikipedia": "ru:Червень"
      },
      "geometry": {
        "type": "Point",
        "coordinates": [
          28.4248141,
          53.7107271
        ]
      },
      "id": "node/242978951"
    },
    {
      "type": "Feature",
      "properties": {
        "@id": "node/242978952",
        "addr:country": "BY",
        "addr:district": "Борисовский район",
        "addr:region": "Минская область",
        "alt_name:eo": "Barisaŭ",
        "int_name": "Barysaŭ",
        "is_in:continent": "Europe",
        "is_in:country": "Belarus",
        "is_in:country_code": "BY",
        "name": "Борисов",
        "name:be": "Барысаў",
        "name:be-tarask": "Барысаў",
        "name:de": "Baryssau",
        "name:en": "Barysaw",
        "name:eo": "Borisov",
        "name:es": "Borisov",
        "name:et": "Barõssav",
        "name:fr": "Borissov",
        "name:lt": "Barysavas",
        "name:nl": "Borisov",
        "name:pl": "Borysów",
        "name:prefix": "город",
        "name:prefix:be": "горад",
        "name:prefix:ru": "город",
        "name:ru": "Борисов",
        "name:uk": "Барисав",
        "old_name:uk": "Борисов",
        "place": "city",
        "population": "140700",
        "population:date": "2018-01-01",
        "source:population": "Белстат",
        "website": "http://www.borisov.minsk-region.by/",
        "wikidata": "Q19313",
        "wikipedia": "be:Горад Барысаў"
      },
      "geometry": {
        "type": "Point",
        "coordinates": [
          28.5117849,
          54.2240665
        ]
      },
      "id": "node/242978952"
    },
    {
      "type": "Feature",
      "properties": {
        "@id": "node/242978953",
        "addr:country": "BY",
        "addr:district": "Глусский район",
        "addr:region": "Могилёвская область",
        "int_name": "Hlusk",
        "name": "Глуск",
        "name:be": "Глуск",
        "name:de": "Hlusk",
        "name:en": "Hlusk",
        "name:fr": "Hlousk",
        "name:pl": "Hłusk",
        "name:prefix": "городской посёлок",
        "name:prefix:be": "гарадскі пасёлак",
        "name:prefix:ru": "городской посёлок",
        "name:ru": "Глуск",
        "place": "town",
        "population": "7138",
        "population:date": "2018-01-01",
        "source:population": "Белстат",
        "wikidata": "Q2995174",
        "wikipedia": "ru:Глуск"
      },
      "geometry": {
        "type": "Point",
        "coordinates": [
          28.6855599,
          52.8990282
        ]
      },
      "id": "node/242978953"
    },
    {
      "type": "Feature",
      "properties": {
        "@id": "node/242978955",
        "addr:country": "BY",
        "addr:district": "Крупский район",
        "addr:region": "Минская область",
        "alt_name:be": "Крупка",
        "int_name": "Krupki",
        "name": "Крупки",
        "name:be": "Крупкі",
        "name:be-tarask": "Крупкі",
        "name:de": "Krupki",
        "name:en": "Krupki",
        "name:fr": "Kroupki",
        "name:lt": "Krupkos",
        "name:pl": "Krupki",
        "name:prefix": "город",
        "name:prefix:be": "горад",
        "name:prefix:ru": "город",
        "name:ru": "Крупки",
        "name:uk": "Крупки",
        "place": "town",
        "population": "8650",
        "population:date": "2018-01-01",
        "source:population": "Белстат",
        "wikidata": "Q200960",
        "wikipedia": "be:Крупкі"
      },
      "geometry": {
        "type": "Point",
        "coordinates": [
          29.139851,
          54.317196
        ]
      },
      "id": "node/242978955"
    },
    {
      "type": "Feature",
      "properties": {
        "@id": "node/242978956",
        "addr:country": "BY",
        "addr:district": "Чашникский район",
        "int_name": "Čašniki",
        "name": "Чашники",
        "name:be": "Чашнікі",
        "name:be-tarask": "Ча́шнікі",
        "name:de": "Tschaschniki",
        "name:en": "Chashniki",
        "name:eo": "Ĉaŝniki",
        "name:fi": "Tchachniki",
        "name:fr": "Tchachniki",
        "name:lt": "Čašnikai",
        "name:pl": "Czaśniki",
        "name:prefix": "город",
        "name:prefix:be": "горад",
        "name:prefix:ru": "город",
        "name:ru": "Чашники",
        "name:uk": "Чашники",
        "place": "town",
        "population": "8817",
        "population:date": "2018-01-01",
        "source:population": "Белстат",
        "wikidata": "Q954421",
        "wikipedia": "ru:Чашники"
      },
      "geometry": {
        "type": "Point",
        "coordinates": [
          29.1598825,
          54.8569819
        ]
      },
      "id": "node/242978956"
    },
    {
      "type": "Feature",
      "properties": {
        "@id": "node/242978959",
        "addr:country": "BY",
        "addr:district": "Россонский район",
        "addr:region": "Витебская область",
        "alt_name:pl": "Rossono",
        "int_name": "Rasony",
        "int_name:prefix": "haradski pasiołak",
        "name": "Россоны",
        "name:be": "Расоны",
        "name:be-tarask": "Расоны",
        "name:de": "Rasony",
        "name:en": "Rasony",
        "name:eo": "Rasoni",
        "name:fr": "Rassony",
        "name:pl": "Rossony",
        "name:prefix": "городской посёлок",
        "name:prefix:be": "гарадскі пасёлак",
        "name:prefix:pl": "osiedle typu miejskiego",
        "name:prefix:ru": "городской посёлок",
        "name:ru": "Россоны",
        "old_name:pl": "Rososna",
        "place": "town",
        "population": "4826",
        "population:date": "2018-01-01",
        "source:population": "Белстат",
        "wikidata": "Q2995168",
        "wikipedia": "be:Расоны"
      },
      "geometry": {
        "type": "Point",
        "coordinates": [
          28.8138759,
          55.9035794
        ]
      },
      "id": "node/242978959"
    },
    {
      "type": "Feature",
      "properties": {
        "@id": "node/242978960",
        "addr:country": "BY",
        "addr:district": "Березинский район",
        "addr:region": "Минская область",
        "alt_name:be": "Беразынь;Бярэзань;Бярэзін;Бярэзіна",
        "int_name": "Bierazino",
        "name": "Березино",
        "name:be": "Беразіно",
        "name:be-tarask": "Бярэзань",
        "name:de": "Berasino",
        "name:en": "Byerazino",
        "name:eo": "Berazino",
        "name:fr": "Bierazino",
        "name:lt": "Berazino",
        "name:pl": "Berezyna",
        "name:prefix": "город",
        "name:prefix:be": "горад",
        "name:prefix:ru": "город",
        "name:ru": "Березино",
        "name:uk": "Бєразіно",
        "place": "town",
        "population": "11672",
        "population:date": "2018-01-01",
        "source:population": "Белстат",
        "wikidata": "Q200833",
        "wikipedia": "ru:Березино (город)"
      },
      "geometry": {
        "type": "Point",
        "coordinates": [
          28.991024,
          53.836365
        ]
      },
      "id": "node/242978960"
    },
    {
      "type": "Feature",
      "properties": {
        "@id": "node/242978961",
        "addr:country": "BY",
        "addr:district": "Ельский район",
        "addr:region": "Гомельская область",
        "int_name": "Jeĺsk",
        "name": "Ельск",
        "name:be": "Ельск",
        "name:be-tarask": "Ельск",
        "name:de": "Jelsk",
        "name:en": "Yelsk",
        "name:fr": "Yelsk",
        "name:lt": "Jelskas",
        "name:pl": "Jelsk",
        "name:prefix": "город",
        "name:prefix:be": "горад",
        "name:prefix:ru": "город",
        "name:ru": "Ельск",
        "name:uk": "Єльськ",
        "place": "town",
        "population": "9046",
        "population:date": "2018-01-01",
        "source:population": "Белстат",
        "wikidata": "Q955726",
        "wikipedia": "ru:Ельск"
      },
      "geometry": {
        "type": "Point",
        "coordinates": [
          29.1519559,
          51.8062942
        ]
      },
      "id": "node/242978961"
    },
    {
      "type": "Feature",
      "properties": {
        "@id": "node/242978964",
        "addr:country": "BY",
        "addr:district": "Круглянский район",
        "addr:region": "Могилёвская область",
        "int_name": "Kruhlaje",
        "name": "Круглое",
        "name:be": "Круглае",
        "name:be-tarask": "Кру́глае",
        "name:de": "Kruhlaje",
        "name:en": "Kruhlaye",
        "name:fr": "Krouhlaïe",
        "name:pl": "Kruhłe",
        "name:prefix": "город",
        "name:prefix:be": "горад",
        "name:prefix:ru": "город",
        "name:ru": "Круглое",
        "place": "town",
        "population": "7648",
        "population:date": "2018-01-01",
        "source:population": "Белстат",
        "wikidata": "Q2630517",
        "wikipedia": "ru:Круглое (Беларусь)",
        "wikipedia:de": "Kruhlaje",
        "wikipedia:en": "Kruhlaye",
        "wikipedia:fr": "Krouhlaïe",
        "wikipedia:pl": "Kruhłe (Białoruś)"
      },
      "geometry": {
        "type": "Point",
        "coordinates": [
          29.7971582,
          54.2484021
        ]
      },
      "id": "node/242978964"
    },
    {
      "type": "Feature",
      "properties": {
        "@id": "node/242978965",
        "addr:country": "BY",
        "addr:district": "Белыничский район",
        "addr:region": "Могилёвская область",
        "alt_name:pl": "Białyniczy",
        "int_name": "Bialyničy",
        "name": "Белыничи",
        "name:be": "Бялынічы",
        "name:be-tarask": "Бялынічы",
        "name:de": "Bjalynitschy",
        "name:en": "Byalynichy",
        "name:fr": "Bialynitchy",
        "name:lt": "Bialyničai",
        "name:pl": "Białynicze",
        "name:prefix": "город",
        "name:prefix:be": "горад",
        "name:prefix:ru": "город",
        "name:ru": "Белыничи",
        "name:uk": "Бяльнічи",
        "place": "town",
        "population": "9887",
        "population:date": "2018-01-01",
        "source:population": "Белстат",
        "wikidata": "Q2630527",
        "wikipedia": "ru:Белыничи"
      },
      "geometry": {
        "type": "Point",
        "coordinates": [
          29.7099785,
          53.9982176
        ]
      },
      "id": "node/242978965"
    },
    {
      "type": "Feature",
      "properties": {
        "@id": "node/242978966",
        "addr:country": "BY",
        "addr:district": "Наровлянский район",
        "addr:region": "Гомельская область",
        "alt_name:be": "Нароўль",
        "int_name": "Naroŭlia",
        "name": "Наровля",
        "name:be": "Нароўля",
        "name:be-tarask": "Нароўля",
        "name:de": "Naroulja",
        "name:en": "Narowlya",
        "name:fr": "Narowlia",
        "name:lt": "Narovlia",
        "name:pl": "Narowla",
        "name:prefix": "город",
        "name:prefix:be": "горад",
        "name:prefix:ru": "город",
        "name:ru": "Наровля",
        "name:uk": "Наровля",
        "place": "town",
        "population": "8046",
        "population:date": "2018-01-01",
        "source:population": "Белстат",
        "wikidata": "Q955736",
        "wikipedia": "ru:Наровля",
        "wikipedia:de": "Naroulja",
        "wikipedia:en": "Narowlya",
        "wikipedia:fr": "Narowlia"
      },
      "geometry": {
        "type": "Point",
        "coordinates": [
          29.5068892,
          51.7976497
        ]
      },
      "id": "node/242978966"
    },
    {
      "type": "Feature",
      "properties": {
        "@id": "node/242978967",
        "addr:country": "BY",
        "addr:district": "Кличевский район",
        "addr:region": "Могилёвская область",
        "int_name": "Kličaŭ",
        "name": "Кличев",
        "name:be": "Клічаў",
        "name:be-tarask": "Клі́чаў",
        "name:de": "Klitschau",
        "name:en": "Klichaw",
        "name:fr": "Klitchaw",
        "name:lt": "Kličavas",
        "name:pl": "Kliczew",
        "name:prefix": "город",
        "name:prefix:be": "горад",
        "name:prefix:ru": "город",
        "name:ru": "Кличев",
        "name:uk": "Кличев",
        "place": "town",
        "population": "7512",
        "population:date": "2018-01-01",
        "source:population": "Белстат",
        "wikidata": "Q955153",
        "wikipedia": "ru:Кличев",
        "wikipedia:be": "Клічаў",
        "wikipedia:de": "Klitschau",
        "wikipedia:en": "Klichaw",
        "wikipedia:fr": "Klitchaw",
        "wikipedia:pl": "Kliczew"
      },
      "geometry": {
        "type": "Point",
        "coordinates": [
          29.3420691,
          53.489614
        ]
      },
      "id": "node/242978967"
    },
    {
      "type": "Feature",
      "properties": {
        "@id": "node/242978968",
        "addr:country": "BY",
        "addr:district": "Бешенковичский район",
        "addr:region": "Витебская область",
        "alt_name:be": "Бешанкавічы",
        "int_name": "Biešankovičy",
        "name": "Бешенковичи",
        "name:be": "Бешанковічы",
        "name:be-tarask": "Бешанковічы",
        "name:de": "Beschankowitschy",
        "name:en": "Beshankovichy",
        "name:eo": "Beŝankoviĉi",
        "name:fr": "Biechankovitchy",
        "name:pl": "Bieszenkowicze",
        "name:prefix": "городской посёлок",
        "name:prefix:be": "гарадскі пасёлак",
        "name:prefix:ru": "городской посёлок",
        "name:ru": "Бешенковичи",
        "name:uk": "Бєшанковічи",
        "place": "town",
        "population": "6597",
        "population:date": "2018-01-01",
        "source:population": "Белстат",
        "wikidata": "Q1033593",
        "wikipedia": "ru:Бешенковичи"
      },
      "geometry": {
        "type": "Point",
        "coordinates": [
          29.4578212,
          55.0457981
        ]
      },
      "id": "node/242978968"
    },
    {
      "type": "Feature",
      "properties": {
        "@id": "node/242978969",
        "addr:country": "BY",
        "addr:district": "Кировский район",
        "addr:region": "Могилёвская область",
        "int_name": "Kiraŭsk",
        "name": "Кировск",
        "name:be": "Кіраўск",
        "name:be-tarask": "Качэ́рычы",
        "name:de": "Kirausk",
        "name:en": "Kirawsk",
        "name:fr": "Kirawsk",
        "name:lt": "Kirauskas",
        "name:pl": "Kirowsk",
        "name:prefix": "город",
        "name:prefix:be": "горад",
        "name:prefix:ru": "город",
        "name:ru": "Кировск",
        "name:uk": "Кіровськ",
        "old_name:be": "Качэрычы;Старцы",
        "old_name:ru": "Старцы",
        "place": "town",
        "population": "8646",
        "population:date": "2018-01-01",
        "source:population": "Белстат",
        "wikidata": "Q955115",
        "wikipedia:be": "Кіраўск",
        "wikipedia:de": "Kirausk",
        "wikipedia:en": "Kirawsk",
        "wikipedia:fr": "Kirawsk",
        "wikipedia:pl": "Kirowsk (Białoruś)",
        "wikipedia:ru": "Кировск_(Могилёвская_область)"
      },
      "geometry": {
        "type": "Point",
        "coordinates": [
          29.4716,
          53.27022
        ]
      },
      "id": "node/242978969"
    },
    {
      "type": "Feature",
      "properties": {
        "@id": "node/242978970",
        "addr:country": "BY",
        "addr:district": "Городокский район",
        "addr:region": "Витебская область",
        "alt_name:pl": "Horodek",
        "int_name": "Haradok",
        "name": "Городок",
        "name:be": "Гарадок",
        "name:be-tarask": "Гарадок",
        "name:de": "Haradok",
        "name:en": "Haradok",
        "name:eo": "Haradok",
        "name:fr": "Haradok",
        "name:lt": "Haradokas",
        "name:pl": "Gródek",
        "name:prefix": "город",
        "name:prefix:be": "горад",
        "name:prefix:ru": "город",
        "name:ru": "Городок",
        "name:uk": "Гарадок",
        "old_name:uk": "Городок",
        "place": "town",
        "population": "12332",
        "population:date": "2018-01-01",
        "source:population": "Белстат",
        "wikidata": "Q954265",
        "wikipedia": "be:Гарадок"
      },
      "geometry": {
        "type": "Point",
        "coordinates": [
          29.9872766,
          55.4614306
        ]
      },
      "id": "node/242978970"
    },
    {
      "type": "Feature",
      "properties": {
        "@id": "node/242978971",
        "addr:country": "BY",
        "addr:district": "Рогачёвский район",
        "addr:region": "Гомельская область",
        "int_name": "Rahačoŭ",
        "name": "Рогачёв",
        "name:be": "Рагачоў",
        "name:be-tarask": "Рагачо́ў",
        "name:de": "Rahatschou",
        "name:en": "Rahachow",
        "name:eo": "Rahaĉoŭ",
        "name:lt": "Rahačovas",
        "name:pl": "Rohaczów",
        "name:prefix": "город",
        "name:prefix:be": "горад",
        "name:prefix:ru": "город",
        "name:ru": "Рогачёв",
        "name:uk": "Рогачов",
        "place": "town",
        "population": "34809",
        "population:date": "2018-01-01",
        "source:population": "Белстат",
        "wikidata": "Q955468",
        "wikipedia": "ru:Рогачёв (город)",
        "wikipedia:be": "Рагачоў",
        "wikipedia:de": "Rahatschou",
        "wikipedia:en": "Rahachow",
        "wikipedia:pl": "Rohaczów"
      },
      "geometry": {
        "type": "Point",
        "coordinates": [
          30.0531983,
          53.0820031
        ]
      },
      "id": "node/242978971"
    },
    {
      "type": "Feature",
      "properties": {
        "@id": "node/242978972",
        "addr:country": "BY",
        "addr:district": "Быховский район",
        "addr:region": "Могилёвская область",
        "alt_name:en": "Bykhaw",
        "ele": "155",
        "image": "https://upload.wikimedia.org/wikipedia/commons/3/3b/Bykhaw_castle_%28cropped%29.jpg",
        "int_name": "Bychaŭ",
        "name": "Быхов",
        "name:be": "Быхаў",
        "name:be-tarask": "Быхаў",
        "name:de": "Bychau",
        "name:en": "Bychaŭ",
        "name:fr": "Bykhaw",
        "name:lt": "Bychavas",
        "name:pl": "Bychów",
        "name:prefix": "город",
        "name:prefix:be": "горад",
        "name:prefix:ru": "город",
        "name:ru": "Быхов",
        "name:uk": "Бихав",
        "old_name:uk": "Бихов",
        "place": "town",
        "population": "17100",
        "population:date": "2018-01-01",
        "source:population": "Белстат",
        "start_date": "1370",
        "website": "http://bykhov.gov.by/",
        "wikidata": "Q954948",
        "wikipedia": "ru:Быхов"
      },
      "geometry": {
        "type": "Point",
        "coordinates": [
          30.244291,
          53.518013
        ]
      },
      "id": "node/242978972"
    },
    {
      "type": "Feature",
      "properties": {
        "@id": "node/242978973",
        "addr:country": "BY",
        "addr:district": "Брагинский район",
        "addr:region": "Гомельская область",
        "alt_name:be": "Брагінь",
        "alt_name:pl": "Brahiń",
        "int_name": "Brahin",
        "name": "Брагин",
        "name:be": "Брагін",
        "name:de": "Brahin",
        "name:en": "Brahin",
        "name:fr": "Brahin",
        "name:lt": "Braginas",
        "name:pl": "Brahin",
        "name:prefix": "городской посёлок",
        "name:prefix:be": "гарадскі пасёлак",
        "name:prefix:ru": "городской посёлок",
        "name:ru": "Брагин",
        "name:uk": "Брагін",
        "place": "town",
        "population": "3681",
        "population:date": "2018-01-01",
        "source:population": "Белстат",
        "wikidata": "Q2470405",
        "wikipedia": "ru:Брагин (городской посёлок)",
        "wikipedia:de": "Brahin",
        "wikipedia:en": "Brahin",
        "wikipedia:fr": "Brahin"
      },
      "geometry": {
        "type": "Point",
        "coordinates": [
          30.2686322,
          51.7820906
        ]
      },
      "id": "node/242978973"
    },
    {
      "type": "Feature",
      "properties": {
        "@id": "node/242978974",
        "addr:country": "BY",
        "addr:district": "Сенненский район",
        "addr:region": "Витебская область",
        "int_name": "Sianno",
        "name": "Сенно",
        "name:be": "Сянно",
        "name:be-tarask": "Сянно",
        "name:de": "Sjanno",
        "name:en": "Sianno",
        "name:fr": "Sianno",
        "name:lt": "Siano",
        "name:pl": "Sienno",
        "name:prefix": "город",
        "name:prefix:be": "горад",
        "name:prefix:ru": "город",
        "name:ru": "Сенно",
        "name:uk": "Сєнно",
        "place": "town",
        "population": "7165",
        "population:date": "2018-01-01",
        "source:population": "Белстат",
        "wikidata": "Q954519",
        "wikipedia": "ru:Сенно"
      },
      "geometry": {
        "type": "Point",
        "coordinates": [
          29.707695,
          54.814182
        ]
      },
      "id": "node/242978974"
    },
    {
      "type": "Feature",
      "properties": {
        "@id": "node/242978975",
        "addr:country": "BY",
        "addr:district": "Толочинский район",
        "addr:region": "Витебская область",
        "alt_name:be": "Талачыно;Талочын",
        "int_name": "Talačyn",
        "name": "Толочин",
        "name:be": "Талачын",
        "name:be-tarask": "Талачын",
        "name:de": "Talatschyn",
        "name:en": "Talachyn",
        "name:eo": "Talaĉin",
        "name:fr": "Talatchyn",
        "name:pl": "Tołoczyn",
        "name:prefix": "город",
        "name:prefix:be": "горад",
        "name:prefix:ru": "город",
        "name:ru": "Толочин",
        "name:uk": "Толочин",
        "place": "town",
        "population": "9690",
        "population:date": "2018-01-01",
        "source:population": "Белстат",
        "wikidata": "Q954343",
        "wikipedia": "ru:Толочин"
      },
      "geometry": {
        "type": "Point",
        "coordinates": [
          29.6938169,
          54.4097573
        ]
      },
      "id": "node/242978975"
    },
    {
      "type": "Feature",
      "properties": {
        "@id": "node/242978977",
        "addr:country": "BY",
        "addr:district": "Хойникский район",
        "addr:region": "Гомельская область",
        "alt_name:be": "Хвайнікі;Хвойнікі;Хвойнічак",
        "int_name": "Chojniki",
        "name": "Хойники",
        "name:be": "Хойнікі",
        "name:be-tarask": "Хво́йнікі",
        "name:de": "Chojniki",
        "name:en": "Khojniki",
        "name:fr": "Khoïniki",
        "name:lt": "Choinikai",
        "name:pl": "Chojniki",
        "name:prefix": "город",
        "name:prefix:be": "горад",
        "name:prefix:ru": "город",
        "name:ru": "Хойники",
        "name:uk": "Хойнікі",
        "old_name:uk": "Хойники",
        "place": "town",
        "population": "12472",
        "population:date": "2018-01-01",
        "source:population": "Белстат",
        "wikidata": "Q955588",
        "wikipedia": "ru:Хойники"
      },
      "geometry": {
        "type": "Point",
        "coordinates": [
          29.9650078,
          51.8875635
        ]
      },
      "id": "node/242978977"
    },
    {
      "type": "Feature",
      "properties": {
        "@id": "node/242978978",
        "addr:country": "BY",
        "addr:district": "Кормянский район",
        "addr:region": "Гомельская область",
        "int_name": "Karma",
        "name": "Корма",
        "name:be": "Карма",
        "name:be-tarask": "Карма",
        "name:de": "Karma",
        "name:en": "Karma",
        "name:fr": "Karma",
        "name:lt": "Korma",
        "name:pl": "Korma",
        "name:prefix": "городской посёлок",
        "name:prefix:be": "гарадскі пасёлак",
        "name:prefix:ru": "городской посёлок",
        "name:ru": "Корма",
        "place": "town",
        "population": "7624",
        "population:date": "2018-01-01",
        "source:population": "Белстат",
        "wikidata": "Q427584",
        "wikipedia": "ru:Корма (Кормянский район)",
        "wikipedia:de": "Karma",
        "wikipedia:en": "Karma",
        "wikipedia:fr": "Karma",
        "wikipedia:pl": "Korma (Białoruś)"
      },
      "geometry": {
        "type": "Point",
        "coordinates": [
          30.7977554,
          53.1328798
        ]
      },
      "id": "node/242978978"
    },
    {
      "type": "Feature",
      "properties": {
        "@id": "node/242978979",
        "addr:country": "BY",
        "addr:district": "Лиозненский район",
        "addr:region": "Витебская область",
        "alt_name:ru": "Лёзно",
        "int_name": "Liozna",
        "name": "Лиозно",
        "name:be": "Лёзна",
        "name:be-tarask": "Лёзна",
        "name:de": "Ljosna",
        "name:en": "Liozna",
        "name:eo": "Lozna",
        "name:fr": "Liozna",
        "name:pl": "Łoźna",
        "name:prefix": "городской посёлок",
        "name:prefix:be": "гарадскі пасёлак",
        "name:prefix:ru": "городской посёлок",
        "name:ru": "Лиозно",
        "place": "town",
        "population": "6684",
        "population:date": "2018-01-01",
        "source:population": "Белстат",
        "wikidata": "Q1025872",
        "wikipedia": "ru:Лиозно",
        "wikipedia:de": "Ljosna",
        "wikipedia:en": "Liozna",
        "wikipedia:fr": "Liozna",
        "wikipedia:pl": "Łoźna"
      },
      "geometry": {
        "type": "Point",
        "coordinates": [
          30.7956654,
          55.0232146
        ]
      },
      "id": "node/242978979"
    },
    {
      "type": "Feature",
      "properties": {
        "@id": "node/242978980",
        "addr:country": "BY",
        "addr:district": "Дубровенский район",
        "addr:region": "Витебская область",
        "int_name": "Dubroŭna",
        "name": "Дубровно",
        "name:be": "Дуброўна",
        "name:be-tarask": "Дуброўна",
        "name:de": "Dubrouna",
        "name:en": "Dubrowna",
        "name:eo": "Dubroŭna",
        "name:fr": "Doubrowna",
        "name:lt": "Dubrouna",
        "name:pl": "Dubrowna",
        "name:prefix": "город",
        "name:prefix:be": "горад",
        "name:prefix:ru": "город",
        "name:ru": "Дубровно",
        "name:uk": "Дубровна",
        "old_name:en": "Dubrovno",
        "old_name:pl": "Dąbrowna",
        "old_name:uk": "Дубровно",
        "place": "town",
        "population": "7079",
        "population:date": "2018-01-01",
        "source:population": "Белстат",
        "wikidata": "Q954505",
        "wikipedia": "ru:Дубровно"
      },
      "geometry": {
        "type": "Point",
        "coordinates": [
          30.6901469,
          54.5721785
        ]
      },
      "id": "node/242978980"
    },
    {
      "type": "Feature",
      "properties": {
        "@id": "node/242978981",
        "addr:country": "BY",
        "addr:district": "Лоевский район",
        "addr:region": "Гомельская область",
        "int_name": "Lojeŭ",
        "name": "Лоев",
        "name:be": "Лоеў",
        "name:be-tarask": "Лоеў",
        "name:de": "Lojeu",
        "name:en": "Loyew",
        "name:fr": "Loïew",
        "name:pl": "Łojów",
        "name:prefix": "городской посёлок",
        "name:prefix:be": "гарадскі пасёлак",
        "name:prefix:ru": "городской посёлок",
        "name:ru": "Лоев",
        "place": "town",
        "population": "6698",
        "population:date": "2018-01-01",
        "source:population": "Белстат",
        "wikidata": "Q2494413",
        "wikipedia": "ru:Лоев",
        "wikipedia:de": "Lojeu",
        "wikipedia:en": "Loyew",
        "wikipedia:fr": "Loïew",
        "wikipedia:pl": "Łojów"
      },
      "geometry": {
        "type": "Point",
        "coordinates": [
          30.7997902,
          51.9358234
        ]
      },
      "id": "node/242978981"
    },
    {
      "type": "Feature",
      "properties": {
        "@id": "node/242978983",
        "addr:country": "BY",
        "addr:district": "Буда-Кошелёвский район",
        "addr:region": "Гомельская область",
        "int_name": "Buda-Kašaliova",
        "name": "Буда-Кошелёво",
        "name:be": "Буда-Кашалёва",
        "name:be-tarask": "Буда-Кашалёва",
        "name:de": "Buda-Kaschaljowa",
        "name:en": "Buda-Kashalyova",
        "name:fr": "Bouda-Kachaliova",
        "name:lt": "Buda Kašaliova",
        "name:pl": "Buda Koszelewska",
        "name:prefix": "город",
        "name:prefix:be": "горад",
        "name:prefix:ru": "город",
        "name:ru": "Буда-Кошелёво",
        "name:uk": "Буда-Кашальова",
        "old_name:uk": "Буда-Кошельово",
        "place": "town",
        "population": "8683",
        "population:date": "2018-01-01",
        "source:population": "Белстат",
        "wikidata": "Q955729",
        "wikipedia": "ru:Буда-Кошелёво"
      },
      "geometry": {
        "type": "Point",
        "coordinates": [
          30.5650702,
          52.7163311
        ]
      },
      "id": "node/242978983"
    },
    {
      "type": "Feature",
      "properties": {
        "@id": "node/242978984",
        "addr:country": "BY",
        "addr:district": "Шкловский район",
        "addr:region": "Могилёвская область",
        "int_name": "Škloŭ",
        "name": "Шклов",
        "name:be": "Шклоў",
        "name:be-tarask": "Шклоў",
        "name:de": "Schklou",
        "name:en": "Shklov",
        "name:eo": "Ŝkloŭ",
        "name:fr": "Chklow",
        "name:lt": "Šklovas",
        "name:pl": "Szkłów",
        "name:prefix": "город",
        "name:prefix:be": "горад",
        "name:prefix:ru": "город",
        "name:ru": "Шклов",
        "name:uk": "Шклов",
        "place": "town",
        "population": "16300",
        "population:date": "2018-01-01",
        "source:population": "Белстат",
        "wikidata": "Q730175",
        "wikipedia": "ru:Шклов",
        "wikipedia:de": "Schklou",
        "wikipedia:en": "Shklov",
        "wikipedia:fr": "Chklow",
        "wikipedia:pl": "Szkłów"
      },
      "geometry": {
        "type": "Point",
        "coordinates": [
          30.2964015,
          54.2021736
        ]
      },
      "id": "node/242978984"
    },
    {
      "type": "Feature",
      "properties": {
        "@id": "node/242978985",
        "addr:country": "BY",
        "addr:district": "Речицкий район",
        "addr:region": "Гомельская область",
        "int_name": "Rečyca",
        "name": "Речица",
        "name:be": "Рэчыца",
        "name:be-tarask": "Рэчыца",
        "name:de": "Retschyza",
        "name:en": "Rechytsa",
        "name:eo": "Reĉica",
        "name:fr": "Retchitsa",
        "name:lt": "Rečyca",
        "name:pl": "Rzeczyca",
        "name:prefix": "город",
        "name:prefix:be": "горад",
        "name:prefix:ru": "город",
        "name:ru": "Речица",
        "name:uk": "Речица",
        "old_name:uk": "Річиця",
        "place": "town",
        "population": "65940",
        "population:date": "2018-01-01",
        "source:population": "Белстат",
        "wikidata": "Q909612",
        "wikipedia": "ru:Речица",
        "wikipedia:de": "Retschyza",
        "wikipedia:en": "Rechytsa",
        "wikipedia:fr": "Retchitsa"
      },
      "geometry": {
        "type": "Point",
        "coordinates": [
          30.3860239,
          52.3717518
        ]
      },
      "id": "node/242978985"
    },
    {
      "type": "Feature",
      "properties": {
        "@id": "node/242978986",
        "addr:country": "BY",
        "addr:district": "Добрушский район",
        "addr:region": "Гомельская область",
        "int_name": "Dobruš",
        "name": "Добруш",
        "name:be": "Добруш",
        "name:be-tarask": "Добруш",
        "name:de": "Dobrusch",
        "name:en": "Dobrush",
        "name:fr": "Dobrouch",
        "name:lt": "Dobrušas",
        "name:pl": "Dobrusz",
        "name:prefix": "город",
        "name:prefix:be": "горад",
        "name:prefix:ru": "город",
        "name:ru": "Добруш",
        "name:uk": "Добруш",
        "place": "town",
        "population": "18388",
        "population:date": "2018-01-01",
        "source:population": "Белстат",
        "wikidata": "Q955474",
        "wikipedia": "ru:Добруш"
      },
      "geometry": {
        "type": "Point",
        "coordinates": [
          31.3058863,
          52.4098777
        ]
      },
      "id": "node/242978986"
    },
    {
      "type": "Feature",
      "properties": {
        "@id": "node/242978987",
        "addr:country": "BY",
        "addr:district": "Краснопольский район",
        "addr:region": "Могилёвская область",
        "int_name": "Krasnapollie",
        "name": "Краснополье",
        "name:be": "Краснаполле",
        "name:de": "Krasnapolle",
        "name:en": "Krasnapollye",
        "name:fr": "Krasnapollie",
        "name:pl": "Krasnopole",
        "name:prefix": "городской посёлок",
        "name:prefix:be": "гарадскі пасёлак",
        "name:prefix:ru": "городской посёлок",
        "name:ru": "Краснополье",
        "name:uk": "Краснопілля",
        "place": "town",
        "population": "5757",
        "population:date": "2018-01-01",
        "source:population": "Белстат",
        "wikidata": "Q2630603",
        "wikipedia": "ru:Краснополье (Белоруссия)",
        "wikipedia:de": "Krasnapolle",
        "wikipedia:en": "Krasnapollye",
        "wikipedia:fr": "Krasnapollie",
        "wikipedia:pl": "Krasnopole (Białoruś)"
      },
      "geometry": {
        "type": "Point",
        "coordinates": [
          31.4006909,
          53.3357484
        ]
      },
      "id": "node/242978987"
    },
    {
      "type": "Feature",
      "properties": {
        "@id": "node/242978988",
        "addr:country": "BY",
        "addr:district": "Ветковский район",
        "addr:region": "Гомельская область",
        "int_name": "Vietka",
        "name": "Ветка",
        "name:be": "Ветка",
        "name:be-tarask": "Ветка",
        "name:de": "Wjetka",
        "name:en": "Vetka",
        "name:fr": "Vietka",
        "name:lt": "Vetka",
        "name:pl": "Wietka",
        "name:prefix": "город",
        "name:prefix:be": "горад",
        "name:prefix:ru": "город",
        "name:ru": "Ветка",
        "name:uk": "Вєтка",
        "old_name:uk": "Вітка",
        "place": "town",
        "population": "8505",
        "population:date": "2018-01-01",
        "source:population": "Белстат",
        "wikidata": "Q518559",
        "wikipedia": "ru:Ветка (город)"
      },
      "geometry": {
        "type": "Point",
        "coordinates": [
          31.1790777,
          52.5611412
        ]
      },
      "id": "node/242978988"
    },
    {
      "type": "Feature",
      "properties": {
        "@id": "node/242978989",
        "addr:country": "BY",
        "addr:district": "Дрибинский район",
        "addr:region": "Могилёвская область",
        "int_name": "Drybin",
        "name": "Дрибин",
        "name:be": "Дрыбін",
        "name:de": "Drybin",
        "name:en": "Drybin",
        "name:fr": "Drybin",
        "name:pl": "Drybin",
        "name:prefix": "городской посёлок",
        "name:prefix:be": "гарадскі пасёлак",
        "name:prefix:ru": "городской посёлок",
        "name:ru": "Дрибин",
        "name:uk": "Дрибін",
        "old_name:uk": "Дрибин",
        "place": "town",
        "population": "2945",
        "population:date": "2018-01-01",
        "source:population": "Белстат",
        "wikidata": "Q2630539",
        "wikipedia": "ru:Дрибин"
      },
      "geometry": {
        "type": "Point",
        "coordinates": [
          31.0931587,
          54.1182948
        ]
      },
      "id": "node/242978989"
    },
    {
      "type": "Feature",
      "properties": {
        "@id": "node/242978990",
        "addr:country": "BY",
        "addr:district": "Чаусский район",
        "addr:region": "Могилёвская область",
        "int_name": "Čavusy",
        "name": "Чаусы",
        "name:be": "Чавусы",
        "name:be-tarask": "Чавусы",
        "name:de": "Tschawussy",
        "name:en": "Chavusy",
        "name:fr": "Tchavoussy",
        "name:lt": "Čavusai",
        "name:pl": "Czausy",
        "name:prefix": "город",
        "name:prefix:be": "горад",
        "name:prefix:ru": "город",
        "name:ru": "Чаусы",
        "name:uk": "Чауси",
        "place": "town",
        "population": "10505",
        "population:date": "2018-01-01",
        "source:population": "Белстат",
        "wikidata": "Q955113",
        "wikipedia": "ru:Чаусы",
        "wikipedia:de": "Tschawussy",
        "wikipedia:en": "Chavusy",
        "wikipedia:fr": "Tchavoussy",
        "wikipedia:pl": "Czausy"
      },
      "geometry": {
        "type": "Point",
        "coordinates": [
          30.9732332,
          53.8071477
        ]
      },
      "id": "node/242978990"
    },
    {
      "type": "Feature",
      "properties": {
        "@id": "node/242978991",
        "addr:country": "BY",
        "addr:district": "Горецкий район",
        "addr:region": "Могилёвская область",
        "alt_name:pl": "Horki, Gorki",
        "int_name": "Horki",
        "name": "Горки",
        "name:be": "Горкі",
        "name:be-tarask": "Горкі",
        "name:de": "Horki",
        "name:en": "Horki",
        "name:eo": "Horki",
        "name:fr": "Horki",
        "name:lt": "Horkai",
        "name:pl": "Horki",
        "name:prefix": "город",
        "name:prefix:be": "горад",
        "name:prefix:ru": "город",
        "name:ru": "Горки",
        "name:uk": "Горкі",
        "old_name:pl": "Hory-Horki",
        "old_name:uk": "Горки",
        "place": "town",
        "population": "34008",
        "population:date": "2018-01-01",
        "source:population": "Белстат",
        "wikidata": "Q954812",
        "wikipedia": "ru:Горки (город)"
      },
      "geometry": {
        "type": "Point",
        "coordinates": [
          30.9810782,
          54.289463
        ]
      },
      "id": "node/242978991"
    },
    {
      "type": "Feature",
      "properties": {
        "@id": "node/242978992",
        "addr:country": "BY",
        "addr:district": "Чечерский район",
        "addr:region": "Гомельская область",
        "int_name": "Čačersk",
        "name": "Чечерск",
        "name:be": "Чачэрск",
        "name:be-tarask": "Чачэрск",
        "name:de": "Tschatschersk",
        "name:en": "Chachersk",
        "name:fr": "Tchatchersk",
        "name:lt": "Čačerskas",
        "name:pl": "Czeczersk",
        "name:prefix": "город",
        "name:prefix:be": "горад",
        "name:prefix:ru": "город",
        "name:ru": "Чечерск",
        "name:uk": "Чечерськ",
        "place": "town",
        "population": "8445",
        "population:date": "2018-01-01",
        "source:population": "Белстат",
        "wikidata": "Q867722",
        "wikipedia": "ru:Чечерск",
        "wikipedia:de": "Tschatschersk",
        "wikipedia:en": "Chachersk",
        "wikipedia:fr": "Tchatchersk",
        "wikipedia:pl": "Czeczersk"
      },
      "geometry": {
        "type": "Point",
        "coordinates": [
          30.9147283,
          52.9132604
        ]
      },
      "id": "node/242978992"
    },
    {
      "type": "Feature",
      "properties": {
        "@id": "node/242978993",
        "addr:country": "BY",
        "addr:district": "Славгородский район",
        "addr:region": "Могилёвская область",
        "alt_name:be": "Прапойск;Прапосік;Прапоськ;Прупой",
        "alt_name:en": "Prapojsk",
        "alt_name:ru": "Пропойск",
        "int_name": "Slaŭharad",
        "name": "Славгород",
        "name:be": "Слаўгарад",
        "name:be-tarask": "Прапойск",
        "name:de": "Slauharad",
        "name:en": "Slawharad",
        "name:fr": "Slawharad",
        "name:lt": "Slauharadas",
        "name:pl": "Sławograd",
        "name:prefix": "город",
        "name:prefix:be": "горад",
        "name:prefix:ru": "город",
        "name:ru": "Славгород",
        "name:uk": "Славгород",
        "place": "town",
        "population": "7826",
        "population:date": "2018-01-01",
        "source:population": "Белстат",
        "wikidata": "Q614294",
        "wikipedia": "ru:Славгород (Белоруссия)"
      },
      "geometry": {
        "type": "Point",
        "coordinates": [
          30.994602,
          53.442223
        ]
      },
      "id": "node/242978993"
    },
    {
      "type": "Feature",
      "properties": {
        "@id": "node/242978995",
        "addr:country": "BY",
        "addr:district": "Каменецкий район",
        "addr:region": "Брестская область",
        "alt_name:be": "Высока",
        "int_name": "Vysokaje",
        "name": "Высокое",
        "name:be": "Высокае",
        "name:de": "Wysokaje",
        "name:en": "Vysokaye",
        "name:fr": "Vyssokaïe",
        "name:lt": "Vysokajė",
        "name:pl": "Wysokie Litewskie",
        "name:prefix": "город",
        "name:prefix:be": "горад",
        "name:prefix:ru": "город",
        "name:ru": "Высокое",
        "name:uk": "Високе",
        "old_name:be": "Высока-Літоўск",
        "old_name:pl": "Wysokie Litewskie",
        "old_name:ru": "Высоко-Литовск",
        "place": "town",
        "population": "4 859",
        "population:date": "2022-01-01",
        "source:population": "Белстат",
        "wikidata": "Q956627",
        "wikipedia": "ru:Высокое (город)"
      },
      "geometry": {
        "type": "Point",
        "coordinates": [
          23.3783112,
          52.3669008
        ]
      },
      "id": "node/242978995"
    },
    {
      "type": "Feature",
      "properties": {
        "@id": "node/242978996",
        "addr:country": "BY",
        "addr:district": "Хотимский район",
        "addr:region": "Могилёвская область",
        "int_name": "Chocimsk",
        "name": "Хотимск",
        "name:be": "Хоцімск",
        "name:de": "Chozimsk",
        "name:en": "Khotsimsk",
        "name:fr": "Khotsimsk",
        "name:pl": "Chocimsk",
        "name:prefix": "городской посёлок",
        "name:prefix:be": "гарадскі пасёлак",
        "name:prefix:ru": "городской посёлок",
        "name:ru": "Хотимск",
        "name:sr": "Хоцимск",
        "name:uk": "Хоцімськ",
        "old_name:uk": "Хотимськ",
        "place": "town",
        "population": "6240",
        "population:date": "2018-01-01",
        "source:population": "Белстат",
        "wikidata": "Q2630628",
        "wikipedia": "ru:Хотимск",
        "wikipedia:be": "Хоцімск",
        "wikipedia:de": "Chozimsk",
        "wikipedia:en": "Khotsimsk",
        "wikipedia:fr": "Khotsimsk"
      },
      "geometry": {
        "type": "Point",
        "coordinates": [
          32.5779751,
          53.4085849
        ]
      },
      "id": "node/242978996"
    },
    {
      "type": "Feature",
      "properties": {
        "@id": "node/242978997",
        "addr:country": "BY",
        "addr:district": "Костюковичский район",
        "addr:region": "Могилёвская область",
        "int_name": "Kasciukovičy",
        "name": "Костюковичи",
        "name:be": "Касцюковічы",
        "name:be-tarask": "Касьцюковічы",
        "name:de": "Kaszjukowitschy",
        "name:en": "Kastsyukovichy",
        "name:fr": "Kastsukovitchy",
        "name:lt": "Kasciukovičai",
        "name:pl": "Kościukowicze",
        "name:prefix": "город",
        "name:prefix:be": "горад",
        "name:prefix:ru": "город",
        "name:ru": "Костюковичи",
        "name:uk": "Костюковичі",
        "place": "town",
        "population": "15977",
        "population:date": "2018-01-01",
        "source:population": "Белстат",
        "wikidata": "Q955013",
        "wikipedia": "ru:Костюковичи"
      },
      "geometry": {
        "type": "Point",
        "coordinates": [
          32.047199,
          53.345921
        ]
      },
      "id": "node/242978997"
    },
    {
      "type": "Feature",
      "properties": {
        "@id": "node/242978998",
        "addr:country": "BY",
        "addr:district": "Климовичский район",
        "addr:region": "Могилёвская область",
        "int_name": "Klimavičy",
        "name": "Климовичи",
        "name:be": "Клімавічы",
        "name:be-tarask": "Клімавічы",
        "name:de": "Klimawitschy",
        "name:en": "Klimavichy",
        "name:fr": "Klimavitchy",
        "name:lt": "Klimavičai",
        "name:pl": "Klimowicze",
        "name:prefix": "город",
        "name:prefix:be": "горад",
        "name:prefix:ru": "город",
        "name:ru": "Климовичи",
        "name:uk": "Климовичі",
        "place": "town",
        "population": "16270",
        "population:date": "2018-01-01",
        "source:population": "Белстат",
        "wikidata": "Q603249",
        "wikipedia": "be:Клімавічы"
      },
      "geometry": {
        "type": "Point",
        "coordinates": [
          31.9612094,
          53.6102643
        ]
      },
      "id": "node/242978998"
    },
    {
      "type": "Feature",
      "properties": {
        "@id": "node/242978999",
        "addr:country": "BY",
        "addr:district": "Мстиславский район",
        "addr:region": "Могилёвская область",
        "alt_name:be": "Амсціслаў;Мсціслаўль",
        "alt_name:en": "Mstsislaw",
        "alt_name:ru": "Мстислав",
        "int_name": "Mscislaŭ",
        "name": "Мстиславль",
        "name:be": "Мсціслаў",
        "name:be-tarask": "Амсьціслаў",
        "name:de": "Mszislau",
        "name:en": "Mscislaŭ",
        "name:fr": "Mstsislaw",
        "name:lt": "Mstislavlis",
        "name:pl": "Mścisław",
        "name:prefix": "город",
        "name:prefix:be": "горад",
        "name:prefix:ru": "город",
        "name:ru": "Мстиславль",
        "name:uk": "Мстиславль",
        "place": "town",
        "population": "10343",
        "population:date": "2018-01-01",
        "source:population": "Белстат",
        "wikidata": "Q744167",
        "wikipedia": "be:Мсціслаў"
      },
      "geometry": {
        "type": "Point",
        "coordinates": [
          31.7257763,
          54.0199107
        ]
      },
      "id": "node/242978999"
    },
    {
      "type": "Feature",
      "properties": {
        "@id": "node/242979000",
        "addr:country": "BY",
        "addr:district": "Кричевский район",
        "addr:region": "Могилёвская область",
        "alt_name:en": "Krychaw",
        "int_name": "Kryčaŭ",
        "name": "Кричев",
        "name:be": "Крычаў",
        "name:be-tarask": "Крычаў",
        "name:de": "Krytschau",
        "name:en": "Kryčaŭ",
        "name:fr": "Krytchaw",
        "name:lt": "Kryčavas",
        "name:pl": "Krzyczew",
        "name:prefix": "город",
        "name:prefix:be": "горад",
        "name:prefix:ru": "город",
        "name:ru": "Кричев",
        "name:uk": "Кричев",
        "place": "town",
        "population": "26007",
        "population:date": "2018-01-01",
        "source:population": "Белстат",
        "wikidata": "Q954914",
        "wikipedia": "ru:Кричев"
      },
      "geometry": {
        "type": "Point",
        "coordinates": [
          31.7066028,
          53.6952273
        ]
      },
      "id": "node/242979000"
    },
    {
      "type": "Feature",
      "properties": {
        "@id": "node/242979004",
        "addr:country": "BY",
        "addr:district": "Волковысский район",
        "addr:region": "Гродненская область",
        "addr:subdistrict": "Росский сельский Совет",
        "alt_name:ru": "Россь",
        "int_name": "Roś",
        "name": "Россь",
        "name:be": "Рось",
        "name:pl": "Roś",
        "name:prefix": "городской посёлок",
        "name:prefix:be": "гарадскі пасёлак",
        "name:prefix:ru": "городской посёлок",
        "name:ru": "Россь",
        "place": "town",
        "population": "4677",
        "population:date": "2018-01-01",
        "source:population": "Белстат",
        "wikidata": "Q2477798",
        "wikipedia": "ru:Россь",
        "wikipedia:pl": "Roś (Białoruś)"
      },
      "geometry": {
        "type": "Point",
        "coordinates": [
          24.4084468,
          53.284083
        ]
      },
      "id": "node/242979004"
    },
    {
      "type": "Feature",
      "properties": {
        "@id": "node/242979005",
        "addr:country": "BY",
        "addr:district": "Волковысский район",
        "addr:region": "Гродненская область",
        "addr:subdistrict": "Красносельский сельский Совет",
        "int_name": "Krasnasieĺski",
        "name": "Красносельский",
        "name:be": "Краснасельскі",
        "name:de": "Krasnaselski",
        "name:en": "Krasnasyelski",
        "name:fr": "Krasnasielski",
        "name:pl": "Krasne Sioło",
        "name:prefix": "городской посёлок",
        "name:prefix:be": "гарадскі пасёлак",
        "name:prefix:ru": "городской посёлок",
        "name:ru": "Красносельский",
        "place": "town",
        "population": "6636",
        "population:date": "2018-01-01",
        "source:population": "Белстат",
        "wikidata": "Q2446345",
        "wikipedia": "ru:Красносельский (Гродненская область)",
        "wikipedia:de": "Krasnaselski",
        "wikipedia:en": "Krasnasyelski",
        "wikipedia:fr": "Krasnasielski",
        "wikipedia:pl": "Krasne Sioło"
      },
      "geometry": {
        "type": "Point",
        "coordinates": [
          24.41997,
          53.262112
        ]
      },
      "id": "node/242979005"
    },
    {
      "type": "Feature",
      "properties": {
        "@id": "node/242979010",
        "addr:country": "BY",
        "addr:district": "Лидский район",
        "addr:district:be": "Лідскі раён",
        "addr:district:ru": "Лидский район",
        "addr:region": "Гродненская область",
        "addr:region:be": "Гродзенская вобласць",
        "addr:region:ru": "Гродненская область",
        "int_name": "Biarozaŭka",
        "name": "Берёзовка",
        "name:be": "Бярозаўка",
        "name:be-tarask": "Бярозаўка",
        "name:de": "Bjarosauka",
        "name:en": "Byarozawka",
        "name:fr": "Biarozawka",
        "name:lt": "Biarozauka",
        "name:pl": "Brzozówka",
        "name:prefix": "город",
        "name:prefix:be": "горад",
        "name:prefix:ru": "город",
        "name:ru": "Берёзовка",
        "place": "town",
        "population": "10311",
        "population:date": "2018-01-01",
        "source:population": "Белстат",
        "wikidata": "Q799939",
        "wikipedia": "pl:Brzozówka (obwód grodzieński)"
      },
      "geometry": {
        "type": "Point",
        "coordinates": [
          25.49824,
          53.72126
        ]
      },
      "id": "node/242979010"
    },
    {
      "type": "Feature",
      "properties": {
        "@id": "node/242979011",
        "addr:country": "BY",
        "addr:district": "Дятловский район",
        "addr:region": "Гродненская область",
        "int_name": "Navajeĺnia",
        "name": "Новоельня",
        "name:be": "Наваельня",
        "name:be-tarask": "Наваельня",
        "name:en": "Navaelnya",
        "name:pl": "Nowojelnia",
        "name:prefix": "городской посёлок",
        "name:prefix:be": "гарадскі пасёлак",
        "name:prefix:ru": "городской посёлок",
        "name:ru": "Новоельня",
        "place": "town",
        "population": "2640",
        "population:date": "2018-01-01",
        "source:population": "Белстат",
        "wikidata": "Q2471892",
        "wikipedia": "ru:Новоельня",
        "wikipedia:pl": "Nowojelnia"
      },
      "geometry": {
        "type": "Point",
        "coordinates": [
          25.57926,
          53.46102
        ]
      },
      "id": "node/242979011"
    },
    {
      "type": "Feature",
      "properties": {
        "@id": "node/242979013",
        "addr:country": "BY",
        "addr:district": "Ивацевичский район",
        "addr:region": "Брестская область",
        "int_name": "Cieliachany",
        "name": "Телеханы",
        "name:be": "Целяханы",
        "name:en": "Celiakhany",
        "name:pl": "Telechany",
        "name:prefix": "городской посёлок",
        "name:prefix:be": "гарадскі пасёлак",
        "name:prefix:ru": "городской посёлок",
        "name:ru": "Телеханы",
        "place": "town",
        "population": "3993",
        "population:date": "2018-01-01",
        "source:population": "Белстат",
        "wikidata": "Q576393",
        "wikipedia": "ru:Телеханы",
        "wikipedia:pl": "Telechany"
      },
      "geometry": {
        "type": "Point",
        "coordinates": [
          25.8417327,
          52.5172854
        ]
      },
      "id": "node/242979013"
    },
    {
      "type": "Feature",
      "properties": {
        "@id": "node/242979015",
        "addr:country": "BY",
        "addr:district": "Барановичский район",
        "addr:region": "Брестская область",
        "int_name": "Haradzišča",
        "name": "Городище",
        "name:be": "Гарадзішча",
        "name:be-tarask": "Гарадзі́шча",
        "name:en": "Haradzishcha",
        "name:pl": "Horodyszcze",
        "name:prefix": "городской посёлок",
        "name:prefix:be": "гарадскі пасёлак",
        "name:prefix:ru": "городской посёлок",
        "name:ru": "Городище",
        "place": "town",
        "population": "2024",
        "population:date": "2018-01-01",
        "source:population": "Белстат",
        "wikidata": "Q2446336",
        "wikipedia": "be:Гарадзішча (Баранавіцкі раён)"
      },
      "geometry": {
        "type": "Point",
        "coordinates": [
          26.0056767,
          53.3268244
        ]
      },
      "id": "node/242979015"
    },
    {
      "type": "Feature",
      "properties": {
        "@id": "node/242979018",
        "addr:country": "BY",
        "addr:district": "Пружанский район",
        "addr:region": "Брестская область",
        "alt_name:be": "Ражана;Ражаная;Ружана",
        "alt_name:be-tarask": "Pужаны",
        "alt_name:de": "Ruschan",
        "int_name": "Ružany",
        "name": "Ружаны",
        "name:be": "Ружаны",
        "name:be-tarask": "Ружа́ны",
        "name:de": "Ruschany",
        "name:en": "Ruzhany",
        "name:pl": "Różana",
        "name:prefix": "городской посёлок",
        "name:prefix:be": "гарадскі пасёлак",
        "name:prefix:ru": "городской посёлок",
        "name:ru": "Ружаны",
        "place": "town",
        "population": "3021",
        "population:date": "2018-01-01",
        "source:population": "Белстат",
        "wikidata": "Q615132",
        "wikipedia": "ru:Ружаны",
        "wikipedia:pl": "Różana (obwód brzeski)"
      },
      "geometry": {
        "type": "Point",
        "coordinates": [
          24.8906748,
          52.865925
        ]
      },
      "id": "node/242979018"
    },
    {
      "type": "Feature",
      "properties": {
        "@id": "node/242979022",
        "addr:country": "BY",
        "addr:district": "Ивацевичский район",
        "addr:region": "Брестская область",
        "alt_name:be": "Косаў",
        "alt_name:ru": "Косово",
        "int_name": "Kosava",
        "name": "Коссово",
        "name:be": "Косава",
        "name:be-tarask": "Косава",
        "name:de": "Kossawa",
        "name:en": "Kosava",
        "name:fr": "Kossava",
        "name:lt": "Kosava",
        "name:pl": "Kosów Poleski",
        "name:prefix": "город",
        "name:prefix:be": "горад",
        "name:prefix:ru": "город",
        "name:ru": "Коссово",
        "old_name:pl": "Kosów Poleski",
        "place": "town",
        "population": "1832",
        "population:date": "2018-01-01",
        "source:population": "Белстат",
        "wikidata": "Q956635",
        "wikipedia": "ru:Коссово",
        "wikipedia:de": "Kossawa",
        "wikipedia:en": "Kosava",
        "wikipedia:fr": "Kossava",
        "wikipedia:pl": "Kosów (Białoruś)"
      },
      "geometry": {
        "type": "Point",
        "coordinates": [
          25.1528353,
          52.7575059
        ]
      },
      "id": "node/242979022"
    },
    {
      "type": "Feature",
      "properties": {
        "@id": "node/242979023",
        "addr:country": "BY",
        "addr:district": "Берёзовский район",
        "addr:region": "Брестская область",
        "int_name": "Bielaaziorsk",
        "name": "Белоозёрск",
        "name:be": "Белаазёрск",
        "name:be-tarask": "Белаазёрск",
        "name:de": "Belaasjorsk",
        "name:en": "Belaazersk",
        "name:fr": "Bielaaziorsk",
        "name:lt": "Belaaziorskas",
        "name:pl": "Białooziersk",
        "name:prefix": "город",
        "name:prefix:be": "горад",
        "name:prefix:ru": "город",
        "name:ru": "Белоозёрск",
        "old_name:pl": "Białooziersk",
        "place": "town",
        "population": "12304",
        "population:date": "2018-01-01",
        "source:population": "Белстат",
        "wikidata": "Q956460",
        "wikipedia": "ru:Белоозёрск",
        "wikipedia:de": "Belaasjorsk",
        "wikipedia:en": "Belaazersk",
        "wikipedia:fr": "Bielaaziorsk"
      },
      "geometry": {
        "type": "Point",
        "coordinates": [
          25.1780389,
          52.4685148
        ]
      },
      "id": "node/242979023"
    },
    {
      "type": "Feature",
      "properties": {
        "@id": "node/242979026",
        "addr:country": "BY",
        "addr:district": "Столинский район",
        "addr:region": "Брестская область",
        "alt_name:be": "Гарадок;Гарудок",
        "alt_name:ru": "Давыд-Городок",
        "int_name": "Davyd-Haradok",
        "name": "Давид-Городок",
        "name:be": "Давыд-Гарадок",
        "name:be-tarask": "Давыд-Гарадок",
        "name:de": "Dawyd-Haradok",
        "name:en": "Davyd-Haradok",
        "name:fr": "Davyd-Haradok",
        "name:lt": "Davyd Haradokas",
        "name:pl": "Dawidgródek",
        "name:prefix": "город",
        "name:prefix:be": "горад",
        "name:prefix:ru": "город",
        "name:ru": "Давид-Городок",
        "name:uk": "Давид-Гарадок",
        "old_name:uk": "Давид-Городок",
        "place": "town",
        "population": "5851",
        "population:date": "2018-01-01",
        "source:population": "Белстат",
        "wikidata": "Q956621",
        "wikipedia": "ru:Давид-Городок"
      },
      "geometry": {
        "type": "Point",
        "coordinates": [
          27.212591,
          52.054893
        ]
      },
      "id": "node/242979026"
    },
    {
      "type": "Feature",
      "properties": {
        "@id": "node/242979028",
        "addr:country": "BY",
        "addr:district": "Минский район",
        "addr:region": "Минская область",
        "alt_name:ru": "Заславье",
        "int_name": "Zaslaŭje",
        "name": "Заславль",
        "name:be": "Заслаўе",
        "name:be-tarask": "Заслаўе",
        "name:de": "Saslauje",
        "name:en": "Zaslawye",
        "name:fr": "Zaslawie",
        "name:lt": "Zaslavlis",
        "name:pl": "Zasław",
        "name:prefix": "город",
        "name:prefix:be": "горад",
        "name:prefix:ru": "город",
        "name:ru": "Заславль",
        "name:uk": "Заслав'є",
        "place": "town",
        "population": "15661",
        "population:date": "2018-01-01",
        "source:name:uk": "Постановление за 2014",
        "source:population": "Белстат",
        "wikidata": "Q200917",
        "wikipedia": "pl:Zasław (Białoruś)"
      },
      "geometry": {
        "type": "Point",
        "coordinates": [
          27.291132,
          54.004494
        ]
      },
      "id": "node/242979028"
    },
    {
      "type": "Feature",
      "properties": {
        "@id": "node/242979029",
        "addr:country": "BY",
        "addr:district": "Молодечненский район",
        "addr:region": "Минская область",
        "int_name": "Radaškovičy",
        "name": "Радошковичи",
        "name:be": "Радашковічы",
        "name:be-tarask": "Радашкавічы",
        "name:de": "Radaschkowitschy",
        "name:en": "Radashkovichy",
        "name:fr": "Radachkovitchy",
        "name:pl": "Radoszkowice",
        "name:prefix": "городской посёлок",
        "name:prefix:be": "гарадскі пасёлак",
        "name:prefix:ru": "городской посёлок",
        "name:ru": "Радошковичи",
        "place": "town",
        "population": "5862",
        "population:date": "2018-01-01",
        "source:population": "Белстат",
        "wikidata": "Q2993986",
        "wikipedia": "ru:Радошковичи"
      },
      "geometry": {
        "type": "Point",
        "coordinates": [
          27.235522,
          54.1596917
        ]
      },
      "id": "node/242979029"
    },
    {
      "type": "Feature",
      "properties": {
        "@id": "node/242979032",
        "addr:country": "BY",
        "addr:district": "Лунинецкий район",
        "addr:postcode": "225687",
        "addr:region": "Брестская область",
        "int_name": "Mikaševičy",
        "name": "Микашевичи",
        "name:be": "Мікашэвічы",
        "name:be-tarask": "Мікашэвічы",
        "name:de": "Mikaschewitschy",
        "name:en": "Mikashevichy",
        "name:fr": "Mikachevitchy",
        "name:lt": "Mikaševičai",
        "name:pl": "Mikaszewicze",
        "name:prefix": "город",
        "name:prefix:be": "горад",
        "name:prefix:ru": "город",
        "name:ru": "Микашевичи",
        "place": "town",
        "population": "12665",
        "population:date": "2018-01-01",
        "source:population": "Белстат",
        "wikidata": "Q956464",
        "wikipedia": "ru:Микашевичи"
      },
      "geometry": {
        "type": "Point",
        "coordinates": [
          27.477364,
          52.221722
        ]
      },
      "id": "node/242979032"
    },
    {
      "type": "Feature",
      "properties": {
        "@id": "node/242979033",
        "addr:country": "BY",
        "addr:district": "Солигорский район",
        "addr:region": "Минская область",
        "int_name": "Starobin",
        "name": "Старобин",
        "name:be": "Старобін",
        "name:de": "Starobin",
        "name:en": "Starobin",
        "name:fr": "Starobin",
        "name:pl": "Starobin",
        "name:prefix": "городской посёлок",
        "name:prefix:be": "гарадскі пасёлак",
        "name:prefix:ru": "городской посёлок",
        "name:ru": "Старобин",
        "place": "town",
        "population": "6287",
        "population:date": "2018-01-01",
        "source:population": "Белстат",
        "wikidata": "Q2471143",
        "wikipedia": "ru:Старобин",
        "wikipedia:de": "Starobin",
        "wikipedia:en": "Starobin",
        "wikipedia:fr": "Starobin",
        "wikipedia:pl": "Starobin"
      },
      "geometry": {
        "type": "Point",
        "coordinates": [
          27.4588627,
          52.7307736
        ]
      },
      "id": "node/242979033"
    },
    {
      "type": "Feature",
      "properties": {
        "@id": "node/242979034",
        "addr:country": "BY",
        "addr:district": "Несвижский район",
        "addr:region": "Минская область",
        "alt_name:be": "Гарадзей;Гародзей;Гародзяя",
        "int_name": "Haradzieja",
        "name": "Городея",
        "name:be": "Гарадзея",
        "name:be-tarask": "Гарадзе́я",
        "name:en": "Haradzieja",
        "name:pl": "Horodziej",
        "name:prefix": "городской посёлок",
        "name:prefix:be": "гарадскі пасёлак",
        "name:prefix:ru": "городской посёлок",
        "name:ru": "Городея",
        "place": "town",
        "population": "3752",
        "population:date": "2018-01-01",
        "source:population": "Белстат",
        "wikidata": "Q2987244",
        "wikipedia": "ru:Городея",
        "wikipedia:pl": "Horodziej"
      },
      "geometry": {
        "type": "Point",
        "coordinates": [
          26.5387834,
          53.3147146
        ]
      },
      "id": "node/242979034"
    },
    {
      "type": "Feature",
      "properties": {
        "@id": "node/242979035",
        "addr:country": "BY",
        "addr:district": "Кореличский район",
        "addr:region": "Гродненская область",
        "int_name": "Mir",
        "name": "Мир",
        "name:be": "Мір",
        "name:be-tarask": "Мір",
        "name:de": "Mir",
        "name:en": "Mir",
        "name:pl": "Mir",
        "name:prefix": "городской посёлок",
        "name:prefix:be": "гарадскі пасёлак",
        "name:prefix:ru": "городской посёлок",
        "name:ru": "Мир",
        "place": "town",
        "population": "2339",
        "population:date": "2018-01-01",
        "source:population": "Белстат",
        "wikidata": "Q922668",
        "wikipedia": "ru:Мир (Гродненская область)",
        "wikipedia:pl": "Mir (osiedle typu miejskiego)"
      },
      "geometry": {
        "type": "Point",
        "coordinates": [
          26.4659132,
          53.4537435
        ]
      },
      "id": "node/242979035"
    },
    {
      "type": "Feature",
      "properties": {
        "@id": "node/242979042",
        "addr:country": "BY",
        "addr:district": "Червенский район",
        "addr:region": "Минская область",
        "int_name": "Smilavičy",
        "name": "Смиловичи",
        "name:be": "Смілавічы",
        "name:de": "Smilawitschy",
        "name:en": "Smilavichy",
        "name:fr": "Smilavitchy",
        "name:pl": "Śmiłowicze",
        "name:prefix": "городской посёлок",
        "name:prefix:be": "гарадскі пасёлак",
        "name:prefix:ru": "городской посёлок",
        "name:ru": "Смиловичи",
        "place": "town",
        "population": "5496",
        "population:date": "2018-01-01",
        "source:population": "Белстат",
        "wikidata": "Q278100",
        "wikipedia": "ru:Смиловичи"
      },
      "geometry": {
        "type": "Point",
        "coordinates": [
          28.0094547,
          53.7517868
        ]
      },
      "id": "node/242979042"
    },
    {
      "type": "Feature",
      "properties": {
        "@id": "node/242979043",
        "addr:country": "BY",
        "addr:district": "Пуховичский район",
        "addr:region": "Минская область",
        "int_name": "Marjina Horka",
        "name": "Марьина Горка",
        "name:be": "Мар’іна Горка",
        "name:be-tarask": "Мар'іна Горка",
        "name:de": "Marjina Horka",
        "name:en": "Maryina Horka",
        "name:fr": "Marina Horka",
        "name:lt": "Marjina Horka",
        "name:pl": "Marina Horka",
        "name:prefix": "город",
        "name:prefix:be": "горад",
        "name:prefix:ru": "город",
        "name:ru": "Марьина Горка",
        "name:uk": "Мар’їна Горка",
        "place": "town",
        "population": "21167",
        "population:date": "2018-01-01",
        "source:population": "Белстат",
        "wikidata": "Q201173",
        "wikipedia:be": "Мар'іна_Горка",
        "wikipedia:de": "Marjina Horka",
        "wikipedia:en": "Maryina Horka",
        "wikipedia:fr": "Marina Horka",
        "wikipedia:pl": "Marina Horka",
        "wikipedia:ru": "Марьина_Горка"
      },
      "geometry": {
        "type": "Point",
        "coordinates": [
          28.1477541,
          53.5117288
        ]
      },
      "id": "node/242979043"
    },
    {
      "type": "Feature",
      "properties": {
        "@id": "node/242979045",
        "addr:country": "BY",
        "addr:district": "Логойский район",
        "addr:postcode": "223130",
        "addr:region": "Минская область",
        "alt_name:be": "Плешчаніца",
        "int_name": "Plieščanicy",
        "name": "Плещеницы",
        "name:be": "Плешчаніцы",
        "name:be-tarask": "Плешчаніцы",
        "name:de": "Pleschtschanizy",
        "name:en": "Pleshchanitsy",
        "name:fr": "Pliechtchanitsy",
        "name:pl": "Pleszczenice",
        "name:prefix": "городской посёлок",
        "name:prefix:be": "гарадскі пасёлак",
        "name:prefix:ru": "городской посёлок",
        "name:ru": "Плещеницы",
        "old_name:pl": "Pleszczanice",
        "place": "town",
        "population": "6100",
        "population:date": "2020-01-01",
        "source:population": "wikipedia",
        "wikidata": "Q2659496",
        "wikipedia": "be:Плешчаніцы"
      },
      "geometry": {
        "type": "Point",
        "coordinates": [
          27.8282758,
          54.4236126
        ]
      },
      "id": "node/242979045"
    },
    {
      "type": "Feature",
      "properties": {
        "@id": "node/242979047",
        "addr:country": "BY",
        "addr:region": "Минская область",
        "alt_name:en": "Zhodzino",
        "int_name": "Žodzina",
        "is_in:continent": "Europe",
        "is_in:country": "Belarus",
        "is_in:country_code": "BY",
        "name": "Жодино",
        "name:be": "Жодзіна",
        "name:be-tarask": "Жодзіна",
        "name:de": "Schodsina",
        "name:en": "Zhodzina",
        "name:eo": "Ĵodzina",
        "name:es": "Zhodino",
        "name:fr": "Jodzina",
        "name:lt": "Žodzina",
        "name:pl": "Żodzino",
        "name:prefix": "город",
        "name:prefix:be": "горад",
        "name:prefix:ru": "город",
        "name:ru": "Жодино",
        "name:sr": "Жодзина",
        "name:sr-Latn": "Žodina",
        "name:uk": "Жодино",
        "note": "Город областного подчинения http://minsk-region.gov.by/ru/region/gorod-oblastnogo-podchineniya",
        "place": "town",
        "population": "64559",
        "population:date": "2018-01-01",
        "source:population": "Белстат",
        "wikidata": "Q200905",
        "wikipedia": "ru:Жодино"
      },
      "geometry": {
        "type": "Point",
        "coordinates": [
          28.3224192,
          54.0963334
        ]
      },
      "id": "node/242979047"
    },
    {
      "type": "Feature",
      "properties": {
        "@id": "node/242979051",
        "addr:country": "BY",
        "addr:district": "Житковичский район",
        "addr:region": "Гомельская область",
        "alt_name:be": "Туроў",
        "int_name": "Turaŭ",
        "name": "Туров",
        "name:be": "Тураў",
        "name:be-tarask": "Тураў",
        "name:de": "Turau",
        "name:en": "Turaw",
        "name:fr": "Touraw",
        "name:lt": "Turovas",
        "name:pl": "Turów",
        "name:prefix": "город",
        "name:prefix:be": "горад",
        "name:prefix:ru": "город",
        "name:ru": "Туров",
        "name:uk": "Турів",
        "place": "town",
        "population": "2765",
        "population:date": "2018-01-01",
        "source:population": "Белстат",
        "wikidata": "Q265670",
        "wikipedia": "be:Тураў"
      },
      "geometry": {
        "type": "Point",
        "coordinates": [
          27.7339373,
          52.0698597
        ]
      },
      "id": "node/242979051"
    },
    {
      "type": "Feature",
      "properties": {
        "@id": "node/242979058",
        "addr:country": "BY",
        "addr:district": "Чашникский район",
        "addr:postcode": "211162",
        "addr:region": "Витебская область",
        "int_name": "Novalukomĺ",
        "name": "Новолукомль",
        "name:be": "Новалукомль",
        "name:be-tarask": "Новалуко́мль",
        "name:de": "Nowalukoml",
        "name:en": "Novalukoml",
        "name:eo": "Novalukoml",
        "name:lt": "Novalukomlis",
        "name:pl": "Nowołukoml",
        "name:prefix": "город",
        "name:prefix:be": "горад",
        "name:prefix:ru": "город",
        "name:ru": "Новолукомль",
        "place": "town",
        "population": "12943",
        "population:date": "2018-01-01",
        "source:population": "Белстат",
        "wikidata": "Q954178",
        "wikipedia:be": "Новалукомль",
        "wikipedia:de": "Nowalukoml",
        "wikipedia:en": "Novalukoml",
        "wikipedia:pl": "Nowołukoml",
        "wikipedia:ru": "Новолукомль"
      },
      "geometry": {
        "type": "Point",
        "coordinates": [
          29.1416823,
          54.656502
        ]
      },
      "id": "node/242979058"
    },
    {
      "type": "Feature",
      "properties": {
        "@id": "node/242979085",
        "addr:country": "BY",
        "addr:district": "Оршанский район",
        "addr:region": "Витебская область",
        "int_name": "Barań",
        "name": "Барань",
        "name:be": "Барань",
        "name:be-tarask": "Барань",
        "name:de": "Baran",
        "name:en": "Barań",
        "name:fr": "Baran",
        "name:lt": "Baranis",
        "name:pl": "Barań",
        "name:prefix": "город",
        "name:prefix:be": "горад",
        "name:prefix:ru": "город",
        "name:ru": "Барань",
        "name:uk": "Барань",
        "place": "town",
        "population": "11154",
        "population:date": "2018-01-01",
        "population:source": "http://www.belstat.gov.by/",
        "source:population": "Белстат",
        "wikidata": "Q286964",
        "wikipedia:be": "Барань",
        "wikipedia:de": "Baran",
        "wikipedia:en": "Barań",
        "wikipedia:fr": "Baran",
        "wikipedia:pl": "Barań",
        "wikipedia:ru": "Барань"
      },
      "geometry": {
        "type": "Point",
        "coordinates": [
          30.3158817,
          54.4791737
        ]
      },
      "id": "node/242979085"
    },
    {
      "type": "Feature",
      "properties": {
        "@id": "node/242979086",
        "addr:country": "BY",
        "addr:district": "Речицкий район",
        "addr:region": "Гомельская область",
        "int_name": "Vasilievičy",
        "name": "Василевичи",
        "name:be": "Васілевічы",
        "name:de": "Wassilewitschy",
        "name:en": "Vasilyevichy",
        "name:fr": "Vasilievitchy",
        "name:lt": "Vasilevičai",
        "name:pl": "Wasilewicze",
        "name:prefix": "город",
        "name:prefix:be": "горад",
        "name:prefix:ru": "город",
        "name:ru": "Василевичи",
        "name:uk": "Васілєвічи",
        "old_name:uk": "Василевичі",
        "place": "town",
        "population": "3324",
        "population:date": "2018-01-01",
        "source:population": "Белстат",
        "wikidata": "Q955740",
        "wikipedia": "ru:Василевичи",
        "wikipedia:be": "Васілевічы",
        "wikipedia:de": "Wassilewitschy",
        "wikipedia:en": "Vasilyevichy",
        "wikipedia:fr": "Vasilievitchy"
      },
      "geometry": {
        "type": "Point",
        "coordinates": [
          29.826679,
          52.245049
        ]
      },
      "id": "node/242979086"
    },
    {
      "type": "Feature",
      "properties": {
        "@id": "node/243010336",
        "addr:country": "BY",
        "addr:district": "Минский район",
        "addr:region": "Минская область",
        "int_name": "Ždanovičy",
        "name": "Ждановичи",
        "name:be": "Ждановічы",
        "name:de": "Schdanowitschy",
        "name:en": "Zhdanovichy",
        "name:fr": "Jdanovitchy",
        "name:pl": "Żdanowicze",
        "name:prefix": "агрогородок",
        "name:prefix:be": "аграгарадок",
        "name:prefix:ru": "агрогородок",
        "name:ru": "Ждановичи",
        "place": "town",
        "population": "8313",
        "wikidata": "Q2584556",
        "wikipedia": "be:Ждановічы (Мінскі раён)"
      },
      "geometry": {
        "type": "Point",
        "coordinates": [
          27.4274175,
          53.9483626
        ]
      },
      "id": "node/243010336"
    },
    {
      "type": "Feature",
      "properties": {
        "@id": "node/243015503",
        "addr:country": "BY",
        "addr:district": "Минский район",
        "addr:region": "Минская область",
        "int_name": "Hatava",
        "name": "Гатово",
        "name:be": "Гатава",
        "name:de": "Hatawa",
        "name:en": "Hatava",
        "name:pl": "Hatów",
        "name:prefix": "агрогородок",
        "name:prefix:be": "аграгарадок",
        "name:prefix:ru": "агрогородок",
        "name:ru": "Гатово",
        "place": "town",
        "wikidata": "Q3917600",
        "wikipedia": "ru:Гатово"
      },
      "geometry": {
        "type": "Point",
        "coordinates": [
          27.641859,
          53.784599
        ]
      },
      "id": "node/243015503"
    },
    {
      "type": "Feature",
      "properties": {
        "@id": "node/243015751",
        "addr:country": "BY",
        "addr:district": "Пуховичский район",
        "addr:region": "Минская область",
        "int_name": "Družny",
        "name": "Дружный",
        "name:be": "Дружны",
        "name:de": "Druschny",
        "name:en": "Druzhny",
        "name:fr": "Droujny",
        "name:prefix": "посёлок",
        "name:prefix:be": "пасёлак",
        "name:prefix:ru": "посёлок",
        "name:ru": "Дружный",
        "place": "town",
        "population": "7984",
        "population:date": "2009-10-14",
        "source:population": "Белстат",
        "wikidata": "Q4168898",
        "wikipedia": "ru:Дружный (Минская область)"
      },
      "geometry": {
        "type": "Point",
        "coordinates": [
          27.8960051,
          53.6227138
        ]
      },
      "id": "node/243015751"
    },
    {
      "type": "Feature",
      "properties": {
        "@id": "node/243015757",
        "addr:country": "BY",
        "addr:district": "Пуховичский район",
        "addr:region": "Минская область",
        "int_name": "Svislač",
        "name": "Свислочь",
        "name:be": "Свіслач",
        "name:en": "Swislatsch",
        "name:lt": "Svisločius",
        "name:pl": "Świsłocz",
        "name:prefix": "городской посёлок",
        "name:prefix:be": "гарадскі пасёлак",
        "name:prefix:ru": "городской посёлок",
        "name:ru": "Свислочь",
        "place": "town",
        "population": "3884",
        "population:date": "2018-01-01",
        "source:population": "Белстат",
        "wikidata": "Q1410290",
        "wikipedia": "ru:Свислочь (Минская область)",
        "wikipedia:pl": "Świsłocz (obwód miński)"
      },
      "geometry": {
        "type": "Point",
        "coordinates": [
          27.9244183,
          53.6397501
        ]
      },
      "id": "node/243015757"
    },
    {
      "type": "Feature",
      "properties": {
        "@id": "node/243017725",
        "addr:country": "BY",
        "addr:district": "Минский район",
        "addr:region": "Минская область",
        "int_name": "Baraŭliany",
        "name": "Боровляны",
        "name:be": "Бараўляны",
        "name:de": "Barauljany",
        "name:en": "Barawlyany",
        "name:fr": "Barawliany",
        "name:pl": "Barawlany",
        "name:prefix": "деревня",
        "name:prefix:be": "вёска",
        "name:prefix:ru": "деревня",
        "name:ru": "Боровляны",
        "place": "town",
        "population": "7339",
        "population:date": "2009-10-14",
        "source:population": "Белстат",
        "wikidata": "Q3919943",
        "wikipedia": "ru:Боровляны (Минский район)"
      },
      "geometry": {
        "type": "Point",
        "coordinates": [
          27.6677013,
          53.9981195
        ]
      },
      "id": "node/243017725"
    },
    {
      "type": "Feature",
      "properties": {
        "@id": "node/277491317",
        "addr:country": "BY",
        "addr:district": "Мозырский район",
        "addr:region": "Гомельская область",
        "int_name": "Mazyr",
        "is_in:continent": "Europe",
        "is_in:country": "Belarus",
        "is_in:country_code": "BY",
        "name": "Мозырь",
        "name:az": "Mozir",
        "name:bat-smg": "Mozīrios",
        "name:be": "Мазыр",
        "name:be-tarask": "Мазыр",
        "name:cs": "Mazyr",
        "name:da": "Mazyr",
        "name:de": "Masyr",
        "name:en": "Mazyr",
        "name:eo": "Mazir",
        "name:es": "Mazyr",
        "name:et": "Mazõr",
        "name:fi": "Mazyr",
        "name:fr": "Mazyr",
        "name:hu": "Mazir",
        "name:ka": "მოზირი",
        "name:km": "មសមុទ្រ",
        "name:ko": "마지르",
        "name:lt": "Mozyrius",
        "name:lv": "Mazira",
        "name:nl": "Mozir",
        "name:pl": "Mozyrz",
        "name:prefix": "город",
        "name:prefix:be": "горад",
        "name:prefix:ru": "город",
        "name:pt": "Masyr",
        "name:ro": "Mazâr",
        "name:ru": "Мозырь",
        "name:sr": "Мозир",
        "name:th": "มาซีร์",
        "name:uk": "Мазир",
        "name:uz": "Mozir",
        "name:yi": "מאזיר",
        "name:zh": "莫济里",
        "old_name:es": "Mózyr",
        "old_name:hu": "Mozir",
        "old_name:uk": "Мозир",
        "place": "city",
        "population": "111733",
        "population:date": "2018-01-01",
        "source:population": "Белстат",
        "wikidata": "Q386487",
        "wikipedia": "be:Горад Мазыр",
        "wikipedia:ru": "Мозырь"
      },
      "geometry": {
        "type": "Point",
        "coordinates": [
          29.2667179,
          52.0475464
        ]
      },
      "id": "node/277491317"
    },
    {
      "type": "Feature",
      "properties": {
        "@id": "node/280028528",
        "addr:country": "BY",
        "addr:region": "Могилёвская область",
        "alt_name:ar": "موجيلوف",
        "alt_name:en": "Mahilyow",
        "capital": "4",
        "contact:website": "http://mogilev.gov.by/",
        "int_name": "Mahilioŭ",
        "is_in:continent": "Europe",
        "is_in:country": "Belarus",
        "is_in:country_code": "BY",
        "name": "Могилёв",
        "name:ar": "موغيلوف",
        "name:be": "Магілёў",
        "name:cs": "Mohylev",
        "name:de": "Mahiljou",
        "name:en": "Mahilioŭ",
        "name:eo": "Mahilovo",
        "name:es": "Maguilov",
        "name:et": "Magiljov",
        "name:fr": "Mahiliow",
        "name:lt": "Mahiļova",
        "name:nl": "Mahiljow",
        "name:pl": "Mohylew",
        "name:prefix": "город",
        "name:prefix:be": "горад",
        "name:prefix:ru": "город",
        "name:ru": "Могилёв",
        "name:sk": "Mahiľov",
        "name:sr": "Могиљов",
        "name:sr-Latn": "Mogiljov",
        "name:szl": "Mohylew",
        "name:uk": "Могильов",
        "name:zh": "莫吉廖夫",
        "old_name": "Могилёв",
        "old_name:en": "Mogilev",
        "old_name:fr": "Moguilev",
        "old_name:lt": "Mogiliavas (Mogiliovas)",
        "place": "city",
        "population": "381353",
        "population:date": "2018-01-01",
        "source:population": "Белстат",
        "wikidata": "Q154835",
        "wikipedia": "be:Горад Магілёў"
      },
      "geometry": {
        "type": "Point",
        "coordinates": [
          30.3429838,
          53.9090245
        ]
      },
      "id": "node/280028528"
    },
    {
      "type": "Feature",
      "properties": {
        "@id": "node/351282610",
        "addr:country": "BY",
        "addr:district": "Гродненский район",
        "addr:region": "Гродненская область",
        "alt_name:be": "Скідаль",
        "int_name": "Skidzieĺ",
        "name": "Скидель",
        "name:be": "Скідзель",
        "name:be-tarask": "Скідаль",
        "name:de": "Skidsel",
        "name:en": "Skidzieĺ",
        "name:fr": "Skidziel",
        "name:lt": "Skidlius",
        "name:pl": "Skidel",
        "name:prefix": "город",
        "name:prefix:be": "горад",
        "name:prefix:ru": "город",
        "name:ru": "Скидель",
        "place": "town",
        "population": "10717",
        "population:date": "2018-01-01",
        "source:population": "Белстат",
        "wikidata": "Q958847",
        "wikipedia": "ru:Скидель"
      },
      "geometry": {
        "type": "Point",
        "coordinates": [
          24.2510704,
          53.5902309
        ]
      },
      "id": "node/351282610"
    },
    {
      "type": "Feature",
      "properties": {
        "@id": "node/428339511",
        "addr:country": "BY",
        "addr:region": "Гродненская область",
        "alt_name:ar": "هرودنا",
        "alt_name:be": "Гародня;Горадня",
        "alt_name:en": "Hrodna",
        "capital": "4",
        "int_name": "Hrodna",
        "is_in:continent": "Europe",
        "is_in:country": "Belarus",
        "is_in:country_code": "BY",
        "name": "Гродно",
        "name:ar": "غرودنو",
        "name:be": "Гродна",
        "name:be-tarask": "Горадня",
        "name:cs": "Hrodna",
        "name:de": "Hrodna",
        "name:en": "Hrodna",
        "name:eo": "Grodno",
        "name:es": "Grodno",
        "name:et": "Grodna",
        "name:fr": "Hrodna",
        "name:he": "גרודנו",
        "name:la": "Grodna",
        "name:lt": "Gardinas",
        "name:nl": "Grodno",
        "name:pl": "Grodno",
        "name:prefix": "город",
        "name:prefix:be": "горад",
        "name:prefix:ru": "город",
        "name:ru": "Гродно",
        "name:sk": "Hrodna",
        "name:sr": "Гродно",
        "name:szl": "Grodno",
        "name:uk": "Гродна",
        "name:zh": "格罗德诺",
        "old_name:de": "Garten",
        "old_name:uk": "Гродно",
        "place": "city",
        "population": "370919",
        "population:date": "2018-01-01",
        "source:population": "Белстат",
        "wikidata": "Q181376",
        "wikipedia": "ru:Гродно",
        "wikipedia:be": "Горад_Гродна",
        "wikipedia:en": "Grodno"
      },
      "geometry": {
        "type": "Point",
        "coordinates": [
          23.8342648,
          53.6834599
        ]
      },
      "id": "node/428339511"
    },
    {
      "type": "Feature",
      "properties": {
        "@id": "node/437185596",
        "addr:country": "BY",
        "addr:district": "Минский район",
        "addr:region": "Минская область",
        "int_name": "Liasny",
        "name": "Лесной",
        "name:be": "Лясны",
        "name:de": "Ljasny",
        "name:en": "Lyasny",
        "name:fr": "Liasny",
        "name:prefix": "агрогородок",
        "name:prefix:be": "аграгарадок",
        "name:prefix:ru": "агрогородок",
        "name:ru": "Лесной",
        "place": "town",
        "population": "11260",
        "population:date": "2009-10-14",
        "source:population": "Белстат",
        "wikidata": "Q3919901",
        "wikipedia": "ru:Лесной (Минская область)"
      },
      "geometry": {
        "type": "Point",
        "coordinates": [
          27.680403,
          54.006142
        ]
      },
      "id": "node/437185596"
    },
    {
      "type": "Feature",
      "properties": {
        "@id": "node/496475615",
        "addr:country": "BY",
        "addr:district": "Калинковичский район",
        "addr:region": "Гомельская область",
        "alt_name:be": "Каленкавічы",
        "int_name": "Kalinkavičy",
        "name": "Калинковичи",
        "name:be": "Калінкавічы",
        "name:be-tarask": "Кале́нкавічы",
        "name:bg": "Калинковичи",
        "name:crh": "Kalinkaviçı",
        "name:cs": "Kalinkavičy",
        "name:de": "Kalinkawitschy",
        "name:en": "Kalinkavichy",
        "name:eo": "Kalinkaviĉi",
        "name:es": "Kalinkavichy",
        "name:fr": "Kalinkavitchy",
        "name:hu": "Kalinkavicsi",
        "name:it": "Kalinkavičy",
        "name:lt": "Kalinkavičai",
        "name:lv": "Kaļinkaviči",
        "name:nl": "Kalinkavitsy",
        "name:pl": "Kalinkowicze",
        "name:prefix": "город",
        "name:prefix:be": "горад",
        "name:prefix:ru": "город",
        "name:ro": "Kalinkavitci",
        "name:ru": "Калинковичи",
        "name:uk": "Калінкавічи",
        "name:uz": "Kalinkovichi",
        "name:zh": "卡林卡維茨基",
        "old_name:uk": "Калинковичі",
        "place": "town",
        "population": "40282",
        "population:date": "2018-01-01",
        "source:population": "Белстат",
        "wikidata": "Q937344",
        "wikipedia": "be:Калінкавічы",
        "wikipedia:de": "Kalinkawitschy",
        "wikipedia:en": "Kalinkavichy",
        "wikipedia:fr": "Kalinkavitchy"
      },
      "geometry": {
        "type": "Point",
        "coordinates": [
          29.3314442,
          52.1286204
        ]
      },
      "id": "node/496475615"
    },
    {
      "type": "Feature",
      "properties": {
        "@id": "node/1064663883",
        "addr:country": "BY",
        "addr:district": "Дзержинский район",
        "addr:region": "Минская область",
        "int_name": "Fanipaĺ",
        "name": "Фаниполь",
        "name:be": "Фаніпаль",
        "name:be-tarask": "Фаніпаль",
        "name:de": "Fanipal",
        "name:en": "Fanipal",
        "name:fr": "Fanipal",
        "name:lt": "Fanipalis",
        "name:pl": "Fanipal",
        "name:prefix": "город",
        "name:prefix:be": "горад",
        "name:prefix:ru": "город",
        "name:ru": "Фаниполь",
        "place": "town",
        "population": "16444",
        "population:date": "2018-01-01",
        "source:population": "Белстат",
        "wikidata": "Q201439",
        "wikipedia:be": "Фаніпаль",
        "wikipedia:ru": "Фаниполь"
      },
      "geometry": {
        "type": "Point",
        "coordinates": [
          27.3204674,
          53.7418173
        ]
      },
      "id": "node/1064663883"
    },
    {
      "type": "Feature",
      "properties": {
        "@id": "node/1127718939",
        "addr:country": "BY",
        "addr:district": "Минский район",
        "addr:region": "Минская область",
        "alt_name:ru": "Мачулищи",
        "int_name": "Mačuliščy",
        "name": "Мачулищи",
        "name:be": "Мачулішчы",
        "name:de": "Matschulischtschy",
        "name:en": "Machulishchy",
        "name:pl": "Moczuliszcze",
        "name:prefix": "городской посёлок",
        "name:prefix:be": "гарадскі пасёлак",
        "name:prefix:ru": "городской посёлок",
        "name:ru": "Мачулищи",
        "old_name": "Военный городок № 92",
        "place": "town",
        "population": "8546",
        "population:date": "2018-01-01",
        "source:population": "Белстат",
        "wikidata": "Q599374",
        "wikipedia": "ru:Мачулищи"
      },
      "geometry": {
        "type": "Point",
        "coordinates": [
          27.5938687,
          53.7810787
        ]
      },
      "id": "node/1127718939"
    },
    {
      "type": "Feature",
      "properties": {
        "@id": "node/1153145528",
        "addr:country": "BY",
        "addr:district": "Волковысский район",
        "addr:region": "Гродненская область",
        "int_name": "Vaŭkavysk",
        "name": "Волковыск",
        "name:be": "Ваўкавыск",
        "name:be-tarask": "Ваўкавыск",
        "name:de": "Waukawysk",
        "name:en": "Vawkavysk",
        "name:eo": "Vaŭkavisk",
        "name:fr": "Vawkavysk",
        "name:lt": "Valkaviskas",
        "name:pl": "Wołkowysk",
        "name:prefix": "город",
        "name:prefix:be": "горад",
        "name:prefix:ru": "город",
        "name:ru": "Волковыск",
        "name:uk": "Вавкависьк",
        "old_name:uk": "Волковиськ",
        "place": "town",
        "population": "44004",
        "population:date": "2018-01-01",
        "source:population": "Белстат",
        "wikidata": "Q739491",
        "wikipedia": "be:Ваўкавыск"
      },
      "geometry": {
        "type": "Point",
        "coordinates": [
          24.458169,
          53.1647286
        ]
      },
      "id": "node/1153145528"
    },
    {
      "type": "Feature",
      "properties": {
        "@id": "node/1580547422",
        "addr:country": "BY",
        "addr:district": "Узденский район",
        "addr:region": "Минская область",
        "alt_name:be": "Вузда",
        "int_name": "Uzda",
        "name": "Узда",
        "name:be": "Узда",
        "name:be-tarask": "Узда",
        "name:de": "Usda",
        "name:en": "Uzda",
        "name:fr": "Ouzda",
        "name:lt": "Uzda",
        "name:pl": "Uzda",
        "name:prefix": "город",
        "name:prefix:be": "горад",
        "name:prefix:ru": "город",
        "name:ru": "Узда",
        "name:uk": "Узда",
        "place": "town",
        "population": "10194",
        "population:date": "2018-01-01",
        "source:population": "Белстат",
        "wikidata": "Q201429",
        "wikipedia": "ru:Узда (город)"
      },
      "geometry": {
        "type": "Point",
        "coordinates": [
          27.213484,
          53.464455
        ]
      },
      "id": "node/1580547422"
    },
    {
      "type": "Feature",
      "properties": {
        "@id": "node/1816928488",
        "addr:country": "BY",
        "addr:district": "Молодечненский район",
        "addr:region": "Минская область",
        "alt_name:be": "Маладэчна",
        "int_name": "Maladziečna",
        "is_in:continent": "Europe",
        "is_in:country": "Belarus",
        "is_in:country_code": "BY",
        "name": "Молодечно",
        "name:be": "Маладзечна",
        "name:be-tarask": "Маладэчна",
        "name:de": "Maladsetschna",
        "name:en": "Maladzyechna",
        "name:eo": "Maladzeĉna",
        "name:es": "Maladetchna",
        "name:et": "Maladzetšna",
        "name:fr": "Maladetchna",
        "name:hu": "Maladzecsna",
        "name:lt": "Maladečina",
        "name:nl": "Maladzetsjna",
        "name:pl": "Mołodeczno",
        "name:prefix": "город",
        "name:prefix:be": "горад",
        "name:prefix:ru": "город",
        "name:ru": "Молодечно",
        "name:szl": "Mołodeczno",
        "name:uk": "Маладзєчна",
        "old_name:uk": "Молодечно",
        "place": "city",
        "population": "95011",
        "population:date": "2018-01-01",
        "source:population": "Белстат",
        "wikidata": "Q201203",
        "wikipedia": "be:Горад Маладзечна",
        "wikipedia:ru": "Молодечно"
      },
      "geometry": {
        "type": "Point",
        "coordinates": [
          26.8389111,
          54.3073327
        ]
      },
      "id": "node/1816928488"
    },
    {
      "type": "Feature",
      "properties": {
        "@id": "node/2112159789",
        "addr:country": "BY",
        "addr:district": "Столбцовский район",
        "addr:region": "Минская область",
        "alt_name": "Столбцы-2",
        "int_name": "Navakolasava",
        "name": "Новоколосово",
        "name:be": "Наваколасава",
        "name:en": "Navakolasava",
        "name:pl": "Nowokołosowo",
        "name:prefix": "посёлок",
        "name:prefix:be": "пасёлак",
        "name:prefix:ru": "посёлок",
        "name:ru": "Новоколосово",
        "place": "town",
        "population": "1602",
        "population:date": "2009-10-14",
        "source:population": "Белстат",
        "wikidata": "Q6518763",
        "wikipedia": "be:Пасёлак Наваколасава"
      },
      "geometry": {
        "type": "Point",
        "coordinates": [
          26.924891,
          53.516613
        ]
      },
      "id": "node/2112159789"
    },
    {
      "type": "Feature",
      "properties": {
        "@id": "node/2115207314",
        "addr:country": "BY",
        "addr:district": "Ганцевичский район",
        "addr:region": "Брестская область",
        "int_name": "Hancavičy",
        "name": "Ганцевичи",
        "name:be": "Ганцавічы",
        "name:be-tarask": "Ганцавічы",
        "name:de": "Hanzawitschy",
        "name:en": "Hantsavichy",
        "name:fr": "Hantsavitchy",
        "name:lt": "Hancavičai",
        "name:pl": "Hancewicze",
        "name:prefix": "город",
        "name:prefix:be": "горад",
        "name:prefix:ru": "город",
        "name:ru": "Ганцевичи",
        "name:uk": "Ганцовичі",
        "place": "town",
        "population": "13925",
        "population:date": "2018-01-01",
        "source:population": "Белстат",
        "wikidata": "Q956470",
        "wikipedia": "ru:Ганцевичи"
      },
      "geometry": {
        "type": "Point",
        "coordinates": [
          26.4272259,
          52.7624599
        ]
      },
      "id": "node/2115207314"
    },
    {
      "type": "Feature",
      "properties": {
        "@id": "node/2271196832",
        "addr:country": "BY",
        "addr:district": "Вороновский район",
        "addr:region": "Гродненская область",
        "alt_name:pl": "Woronów",
        "int_name": "Voranava",
        "name": "Вороново",
        "name:be": "Воранава",
        "name:be-tarask": "Вярэ́наў",
        "name:de": "Woranawa",
        "name:en": "Voranava",
        "name:fr": "Voranava",
        "name:lt": "Varanavas",
        "name:pl": "Werenowo",
        "name:prefix": "городской посёлок",
        "name:prefix:be": "гарадскі пасёлак",
        "name:prefix:ru": "городской посёлок",
        "name:ru": "Вороново",
        "name:uk": "Воранава",
        "old_name:pl": "Werenów",
        "place": "town",
        "population": "6356",
        "population:date": "2018-01-01",
        "source:population": "Белстат",
        "wikidata": "Q2470394",
        "wikipedia": "be:Гарадскі пасёлак Воранава"
      },
      "geometry": {
        "type": "Point",
        "coordinates": [
          25.3196741,
          54.1520519
        ]
      },
      "id": "node/2271196832"
    },
    {
      "type": "Feature",
      "properties": {
        "@id": "node/2271196833",
        "addr:country": "BY",
        "addr:district": "Осиповичский район",
        "addr:region": "Могилёвская область",
        "int_name": "Asipovičy",
        "name": "Осиповичи",
        "name:be": "Асіповічы",
        "name:be-tarask": "Асіповічы",
        "name:de": "Assipowitschy",
        "name:en": "Asipovichy",
        "name:eo": "Asipoviĉi",
        "name:fr": "Assipovitchy",
        "name:lt": "Asipovičai",
        "name:pl": "Osipowicze",
        "name:prefix": "город",
        "name:prefix:be": "горад",
        "name:prefix:ru": "город",
        "name:ru": "Осиповичи",
        "name:uk": "Осиповичі",
        "place": "town",
        "population": "31129",
        "population:date": "2018-01-01",
        "source:population": "Белстат",
        "wikidata": "Q742161",
        "wikipedia:be": "Асіповічы",
        "wikipedia:de": "Assipowitschy",
        "wikipedia:en": "Asipovichy",
        "wikipedia:fr": "Assipovitchy",
        "wikipedia:pl": "Osipowicze",
        "wikipedia:ru": "Осиповичи"
      },
      "geometry": {
        "type": "Point",
        "coordinates": [
          28.6382068,
          53.3084631
        ]
      },
      "id": "node/2271196833"
    },
    {
      "type": "Feature",
      "properties": {
        "@id": "node/2903002190",
        "addr:country": "BY",
        "addr:district": "Петриковский район",
        "addr:region": "Гомельская область",
        "alt_name:be": "Петрыкоў",
        "int_name": "Pietrykaŭ",
        "name": "Петриков",
        "name:be": "Петрыкаў",
        "name:be-tarask": "Петрыкаў",
        "name:de": "Petrykau",
        "name:en": "Pyetrykaw",
        "name:fr": "Pietrykaw",
        "name:lt": "Petrykavas",
        "name:pl": "Petryków",
        "name:prefix": "город",
        "name:prefix:be": "горад",
        "name:prefix:ru": "город",
        "name:ru": "Петриков",
        "place": "town",
        "population": "10100",
        "population:date": "2018-01-01",
        "source:population": "Белстат",
        "wikidata": "Q955717",
        "wikipedia": "ru:Петриков",
        "wikipedia:de": "Petrykau",
        "wikipedia:en": "Pyetrykaw",
        "wikipedia:fr": "Pietrykaw",
        "wikipedia:pl": "Petryków"
      },
      "geometry": {
        "type": "Point",
        "coordinates": [
          28.4956961,
          52.1259041
        ]
      },
      "id": "node/2903002190"
    },
    {
      "type": "Feature",
      "properties": {
        "@id": "node/2967480392",
        "int_name": "Svietlahorsk",
        "is_in:country_code": "BY",
        "is_in:district": "Светлогорский район",
        "is_in:region": "Гомельская область",
        "name": "Светлогорск",
        "name:be": "Светлагорск",
        "name:be-tarask": "Шаці́лкі",
        "name:de": "Swetlahorsk",
        "name:en": "Svietlahоrsk",
        "name:eo": "Svetlahorsk",
        "name:fr": "Svietlahorsk",
        "name:lt": "Svetlogorskas",
        "name:pl": "Swietłahorsk",
        "name:prefix": "город",
        "name:prefix:be": "горад",
        "name:prefix:ru": "город",
        "name:ru": "Светлогорск",
        "name:uk": "Світлогорськ",
        "old_name:be": "Шацілкі;Шаці́лавічы",
        "old_name:ru": "Шатилки",
        "place": "town",
        "postal_code": "247400",
        "wikidata": "Q955359",
        "wikipedia": "ru:Светлогорск (Гомельская область)"
      },
      "geometry": {
        "type": "Point",
        "coordinates": [
          29.7484516,
          52.6330526
        ]
      },
      "id": "node/2967480392"
    },
    {
      "type": "Feature",
      "properties": {
        "@id": "node/4230154696",
        "addr:country": "BY",
        "addr:district": "Оршанский район",
        "addr:region": "Витебская область",
        "alt_name:en": "Orsha",
        "alt_name:eo": "Vorŝa",
        "int_name": "Orša",
        "is_in:continent": "Europe",
        "is_in:country": "Belarus",
        "is_in:country_code": "BY",
        "name": "Орша",
        "name:be": "Орша",
        "name:be-tarask": "Ворша",
        "name:de": "Orscha",
        "name:en": "Orsha",
        "name:eo": "Orŝa",
        "name:es": "Orsha",
        "name:et": "Orša",
        "name:fr": "Orcha",
        "name:hu": "Orsa",
        "name:it": "Orša",
        "name:lt": "Orša",
        "name:lv": "Orša",
        "name:nl": "Orsja",
        "name:pl": "Orsza",
        "name:prefix": "город",
        "name:prefix:be": "горад",
        "name:prefix:ru": "город",
        "name:pt": "Orsha",
        "name:ru": "Орша",
        "name:uk": "Орша",
        "name:zh": "奥尔沙",
        "place": "city",
        "population": "106505",
        "population:date": "2021-01-01",
        "source:population": "Белстат",
        "wikidata": "Q208609",
        "wikipedia": "ru:Орша",
        "wikipedia:be": "Горад_Орша",
        "wikipedia:pl": "Orsza"
      },
      "geometry": {
        "type": "Point",
        "coordinates": [
          30.4254486,
          54.5119008
        ]
      },
      "id": "node/4230154696"
    },
    {
      "type": "Feature",
      "properties": {
        "@id": "node/4736396990",
        "addr:country": "BY",
        "addr:district": "Чериковский район",
        "addr:postcode": "213533",
        "addr:region": "Могилёвская область",
        "int_name": "Čerykaŭ",
        "name": "Чериков",
        "name:be": "Чэрыкаў",
        "name:be-tarask": "Чэрыкаў",
        "name:de": "Tscherykau",
        "name:en": "Cherykaw",
        "name:fr": "Tcherykaw",
        "name:lt": "Čerykavas",
        "name:pl": "Czeryków",
        "name:prefix": "город",
        "name:prefix:be": "горад",
        "name:prefix:ru": "город",
        "name:ru": "Чериков",
        "name:uk": "Чериков",
        "place": "town",
        "population": "8144",
        "population:date": "2018-01-01",
        "source:population": "Белстат",
        "wikidata": "Q955126",
        "wikipedia": "ru:Чериков",
        "wikipedia:be": "Чэрыкаў",
        "wikipedia:de": "Tscherykau",
        "wikipedia:en": "Cherykaw",
        "wikipedia:fr": "Tcherykaw",
        "wikipedia:pl": "Czeryków"
      },
      "geometry": {
        "type": "Point",
        "coordinates": [
          31.3804512,
          53.5697773
        ]
      },
      "id": "node/4736396990"
    }
  ]
}